{"type":"FeatureCollection","crs":{"type":"name","properties":{"name":"EPSG:4326"}},"features":[{"type":"Feature","id":26,"geometry":{"type":"Point","coordinates":[-85.3984,44.2657]},"properties":{"OBJECTID":26,"Longitude":-85.3984,"Latitude":44.2657,"Name":"Cadillac WWTP","MiEnviroUrl":"https://mienviro.michigan.gov/nsite/DEFAULT/map/results/detail/2113288482639133030/Documents","PermitNumber":"MI0020257","County":"Wexford","District":"Cadillac","DischargeType":"NPDES","NPDESOutfall":"001A","ReceivingWaterbody":"Clam River","ApprovedIPP":"Yes","EGLEContact":"Anne Tavalire","ContactPhone":"248-508-1102","ContactEmail":"tavalirea@michigan.gov","GlobalID":"dbcbdfa6-81f9-4eaf-bc4a-97acf1acc561","ExceedsGwCleanUpCriteria":"No"}}]}