{"type":"FeatureCollection","features":[{"type":"Feature","id":449,"geometry":{"type":"Point","coordinates":[-85.396533333,44.2673055560001]},"properties":{"OBJECTID":449,"STRC_NUM":13631,"ID":"83309H00013C010","OWNER":"Wexford County","FACILITY":"PLETT RD","FEATINT":"CLAM RIVER","COUNTY":"Wexford","REGION":"North","AREA":1204,"CLEAR_RDWY":35,"LANES":2,"ADT":6000,"YEARBUILT":2012,"YEARRECON":null,"ITEM43":"119","INSPDATE":"07/15/26","INSPFREQ":24,"ITEM58":"N","ITEM59":"N","ITEM60":"N","ITEM62":"7","LowestRating":"7","ITEM41":"A","ITEM141":null,"ITEM103":null,"ITEM113":"5","HOUSE_DISTRICT":101,"NBISLEN":"Y","SERVTYPON":"1"}}]}