{"type":"FeatureCollection","features":[{"type":"Feature","id":1588,"geometry":{"type":"Polygon","coordinates":[[[-85.463124486176199,44.338934109779423],[-85.462981326192235,44.338729454831757],[-85.461036706145705,44.335950890707998],[-85.460101916649577,44.33445387889612],[-85.459139220011494,44.333097400196031],[-85.458351039129624,44.331946848779232],[-85.45756339293078,44.330911085646868],[-85.457250746560732,44.330221408370363],[-85.456466639617531,44.328726208648462],[-85.456153732444946,44.328151315645329],[-85.455526374033013,44.32700095217379],[-85.454901185763376,44.325621016509544],[-85.454120132108798,44.323896518252219],[-85.453178150092754,44.322286023745022],[-85.452395327362069,44.320676290066153],[-85.452083580978993,44.319986600294776],[-85.451301607653065,44.318376583183266],[-85.450988019754504,44.317801669361145],[-85.450044063161585,44.316420439712374],[-85.449103394867464,44.314695405472158],[-85.447536831972201,44.311705170302531],[-85.44723063030402,44.310441252506031],[-85.446608772180099,44.308831700391544],[-85.445989122651895,44.306992850815149],[-85.445681890778559,44.305843717356908],[-85.444899491866209,44.304233647623676],[-85.444601510263951,44.302281012961146],[-85.443980907670607,44.300556657329025],[-85.442885222721742,44.298371640910226],[-85.442731659443098,44.297796926572943],[-85.442264707688039,44.296647552943284],[-85.442113035621048,44.295958056278323],[-85.441651601354664,44.294234191007725],[-85.441508414418124,44.292741475068205],[-85.440732590171834,44.290557164250899],[-85.440265737518573,44.289407502795129],[-85.439487478629431,44.287567824816833],[-85.438868282956975,44.285728650668069],[-85.438402607748756,44.284464477030127],[-85.437466113105074,44.282394416484479],[-85.436843709129363,44.280900150497096],[-85.436531572407347,44.280210126848118],[-85.43606488375417,44.279060445219564],[-85.435912542608477,44.278370934269319],[-85.435610882090245,44.276762341754583],[-85.435458548011752,44.276073393506593],[-85.435155017064815,44.274579302574296],[-85.434534978910676,44.272855166296658],[-85.433912748998921,44.271360602715561],[-85.433601814257145,44.270555782504374],[-85.432975506876929,44.269405565302364],[-85.432664263170025,44.268715534528333],[-85.432511204029467,44.26802629565767],[-85.432358601393275,44.267451850032224],[-85.432046588418615,44.266761813387895],[-85.431574844420027,44.266071254024396],[-85.431106127001073,44.265151120661521],[-85.430636307695224,44.264345773644656],[-85.430166834349933,44.263425635797091],[-85.42938317952138,44.262045301046165],[-85.428920926481013,44.260551231404627],[-85.428613139342346,44.259516826627753],[-85.428460938174609,44.258827585187902],[-85.428309861750733,44.258023274037683],[-85.428157672001689,44.257333750229783],[-85.42912574625683,44.256418613773555],[-85.430410982571274,44.255734090992526],[-85.431529322780705,44.255623236092923],[-85.43328540561393,44.255628954279835],[-85.434402624352003,44.255632860737094],[-85.43599898734108,44.25563830359215],[-85.436955389742891,44.255756454271065],[-85.438229017047306,44.256104915389471],[-85.43982130831526,44.256454940528265],[-85.442207822345992,44.257266347092504],[-85.444911976374996,44.258193774574764],[-85.446183524520833,44.258772001379342],[-85.448407844672317,44.259697836441724],[-85.449517566071307,44.260505101123023],[-85.452372608051533,44.262236345437771],[-85.453641385015558,44.26304406038286],[-85.456018235166312,44.264773744104367],[-85.457919968975673,44.266157569579747],[-85.459027030127075,44.26719459335208],[-85.461083643181979,44.269037988627943],[-85.462511379964724,44.269961152121944],[-85.463779408681148,44.270883539057934],[-85.465208284281942,44.271691599047656],[-85.466160018508688,44.27226864882595],[-85.467427105145205,44.273305781567238],[-85.469805813811519,44.274920669897284],[-85.471869008895894,44.276189938302473],[-85.473615603123207,44.277228398089839],[-85.475357592206947,44.27861146108684],[-85.477264097585717,44.279650605993595],[-85.478850320399062,44.280688519652998],[-85.480434314055998,44.282071057404785],[-85.481545133355695,44.282763216932615],[-85.484405005123506,44.284264083662592],[-85.485993501007925,44.285072606528011],[-85.488059190908828,44.286226798473635],[-85.490920401113414,44.287612714307919],[-85.492033229924715,44.288189989686821],[-85.49362393220656,44.288768550664749],[-85.495218217216419,44.289117522186984],[-85.496333103183417,44.289464899492238],[-85.497130364698307,44.289582115375524],[-85.498407050376002,44.289700610919361],[-85.499205104945744,44.289817536694045],[-85.500803383672462,44.289707282573772],[-85.502407341603998,44.289022796940088],[-85.503529888591032,44.288566600429469],[-85.505131833979988,44.288111932602504],[-85.506413366357108,44.287655843155498],[-85.507059183755558,44.286969071962972],[-85.507867690232914,44.285938068299536],[-85.508513469200338,44.285251010501625],[-85.508999444060549,44.284563251050422],[-85.509492948690635,44.283071986606437],[-85.509821999061671,44.28203973246886],[-85.509835151192448,44.280661733704889],[-85.509843655861488,44.279743158976608],[-85.51001097036378,44.278940066922111],[-85.509699736467056,44.27813573842797],[-85.509864337802085,44.277562217847191],[-85.509870916809191,44.276873215752936],[-85.509879239968797,44.276069434455216],[-85.509726044571593,44.275380022408484],[-85.509571103004561,44.27480567550117],[-85.509105754039098,44.27342643918135],[-85.508476973741381,44.272391708699416],[-85.507690396746014,44.271126703267313],[-85.507381178949245,44.270092514041053],[-85.507390690257395,44.269059153416478],[-85.507719514827244,44.268141412618156],[-85.507884107723584,44.267567890340835],[-85.508369939578358,44.266880417036241],[-85.508537240368597,44.266077039137357],[-85.508861561843332,44.265503932114186],[-85.509193244583173,44.264241823104172],[-85.510163064604768,44.26298164099898],[-85.510490846386716,44.262178959528654],[-85.510979499910832,44.261146829126588],[-85.511634404747753,44.259426382285348],[-85.51196424950399,44.258279330709826],[-85.512451879104816,44.257361982546584],[-85.512940448678236,44.256330122956498],[-85.513105747030963,44.255756315507753],[-85.513753049186363,44.254839646516238],[-85.514078997539045,44.254151456930273],[-85.514565605070729,44.253349447552665],[-85.515053153620343,44.25243208220926],[-85.515540685730329,44.251514720056434],[-85.51570515644616,44.250941185041576],[-85.515716259245323,44.249793036410068],[-85.515566706520886,44.248759268946763],[-85.515572260496214,44.248185334463095],[-85.515268576124726,44.246577227105064],[-85.514958573485586,44.24554305082809],[-85.514485069091293,44.244967621764786],[-85.513692988961083,44.244391377590674],[-85.51322046685749,44.243701432812109],[-85.513068271879334,44.242897514719331],[-85.51276372547197,44.241403909586836],[-85.512933776598544,44.240256162487896],[-85.513104597749745,44.239108698277448],[-85.513271757244993,44.238305313488446],[-85.513441786073628,44.237157847752975],[-85.513611626354333,44.236125169988661],[-85.51393747969567,44.235436977009094],[-85.514105573700903,44.2345188045119],[-85.514111138347914,44.233944866923636],[-85.51411670037929,44.233370931070766],[-85.514124175601708,44.232567139441649],[-85.514129742413928,44.231993203479576],[-85.513983134785292,44.230615070741045],[-85.513831750970112,44.229810872591457],[-85.512882325927862,44.22888984867722],[-85.511772154906353,44.22819798533768],[-85.510977619908743,44.227851575660338],[-85.509386642251982,44.227388030969372],[-85.508591168962795,44.227156110761761],[-85.507158113953778,44.226808018143366],[-85.505241298186121,44.22703231117422],[-85.503480398921553,44.227601632937237],[-85.50219838665808,44.228171913691952],[-85.501077954022406,44.228513312817391],[-85.498998464216115,44.229081440624533],[-85.496752772386898,44.230223310048025],[-85.495635039552255,44.230334803626718],[-85.494519500028375,44.230101916708698],[-85.493246886576216,44.229753804294695],[-85.491657993430408,44.229060721516646],[-85.489911291528074,44.228251826600655],[-85.487844571580197,44.227442017788292],[-85.485934516493117,44.226977262665528],[-85.484979493327344,44.226745014418796],[-85.483066666664939,44.226509784132595],[-85.482110651563019,44.226392015161323],[-85.479879355149663,44.226155833734474],[-85.478923352093901,44.226038038058817],[-85.476848875604801,44.226032105843814],[-85.475091604964774,44.226256349576211],[-85.473171838133496,44.226709674347028],[-85.471890587529643,44.227165109205302],[-85.47061139716908,44.227390957040576],[-85.469011620532967,44.22784514803481],[-85.467413122885404,44.228070020331828],[-85.466293543339546,44.228296290670038],[-85.465335425682539,44.228407960084539],[-85.464217668716699,44.228519144371631],[-85.463099117387728,44.228630594867035],[-85.461820650332953,44.228856347064813],[-85.460383589417091,44.228966537607093],[-85.459263175781629,44.229192734338127],[-85.458305036496284,44.229304341195181],[-85.457022546322719,44.22987439936297],[-85.456221117548196,44.230216328965859],[-85.455418602980942,44.230673041282657],[-85.454773868377799,44.231245018545138],[-85.453969188728266,44.231931297352524],[-85.453166921738458,44.23227319979997],[-85.452205782711147,44.232614331020933],[-85.451248650209905,44.232611373925756],[-85.451189577720527,44.232817601242758],[-85.450751933626123,44.234331694567139],[-85.450264615940867,44.235133996742512],[-85.449780230365803,44.235706445875621],[-85.449295051330225,44.236279172688171],[-85.4483294870046,44.237079416742432],[-85.447522780793548,44.2378804329811],[-85.446876801346306,44.238567434102841],[-85.446070056380378,44.23936843630382],[-85.445585598039486,44.239940589083972],[-85.444296510903612,44.241084715679683],[-85.443491882489411,44.241656125909273],[-85.442047110350387,44.242455083839623],[-85.441245416452276,44.242796907711195],[-85.440124360815929,44.243137426452897],[-85.438520926666897,44.243821040615735],[-85.437559513630234,44.244162048025601],[-85.436599976390013,44.244388825069173],[-85.43515948750715,44.244728262904459],[-85.433718978012905,44.24506796884431],[-85.432442271592151,44.245063536791953],[-85.431643839248963,44.245060931258529],[-85.430846193715411,44.245058044099835],[-85.42909155136698,44.244937217724768],[-85.427496595661623,44.24481689481221],[-85.426698952122649,44.244814257784064],[-85.424942065966817,44.244922944265433],[-85.423664576511854,44.244918689192822],[-85.422707247232154,44.244915214779368],[-85.421590224311331,44.244911475615787],[-85.419831405891571,44.245134863698119],[-85.418712097748866,44.245360671070742],[-85.417432315812562,44.245585640056476],[-85.415830482695768,44.246153873556857],[-85.414868903941482,44.246494967192241],[-85.413905372480045,44.246950839916387],[-85.412940306446615,44.247636279409008],[-85.411490720947185,44.248779205399416],[-85.410207362821509,44.249348733513543],[-85.40909063863468,44.249229802251556],[-85.40813556368586,44.248996910506932],[-85.40702624052139,44.24830403281991],[-85.406555717310397,44.247613369239204],[-85.406563494916,44.246924373950563],[-85.406890647123348,44.246236771011908],[-85.407698024068864,44.245436041903929],[-85.408663112523499,44.244750647324288],[-85.409627022808607,44.244180031342957],[-85.410112655139741,44.243607756437449],[-85.411078841077227,44.242807554398084],[-85.41188611427917,44.242006797936639],[-85.412693363412387,44.241205752947593],[-85.413660259936222,44.240405814640532],[-85.414305859750257,44.239718996524161],[-85.41463403155629,44.238916582728017],[-85.415120719522761,44.238229499955516],[-85.415773944626167,44.236853952641752],[-85.416261739722671,44.236052359503688],[-85.416586436203417,44.235594019881603],[-85.417964775819343,44.23409587448117],[-85.418156247127129,44.233888372536981],[-85.417241527660039,44.234103682348234],[-85.416284367572274,44.234100432207747],[-85.414842861006562,44.234554405012958],[-85.41388376755377,44.23466591869493],[-85.412762697975793,44.23500645109182],[-85.411803591058941,44.235117666384433],[-85.410524784599318,44.235342842379879],[-85.409565663884763,44.2354543215611],[-85.408448828605231,44.235450172961492],[-85.407331990991011,44.235446011627722],[-85.406377143446008,44.235213109059188],[-85.405416853611413,44.235439054972936],[-85.404459676246788,44.235435704865573],[-85.403661374003477,44.23543290638198],[-85.40206438499176,44.23554179834985],[-85.400789059614553,44.235422227305349],[-85.39951178528267,44.235417422986806],[-85.398236069800092,44.235412890882799],[-85.397278108062764,44.235409480918733],[-85.39632093451776,44.235405781719393],[-85.395203315882853,44.23540150211921],[-85.393896682863257,44.235208530483526],[-85.39360988357663,44.235165914459138],[-85.392804434445097,44.23585175833815],[-85.392002546235659,44.23619323878588],[-85.390724837003802,44.236303408989762],[-85.389768063455492,44.236184862981688],[-85.388495154985378,44.235835579366459],[-85.387065787947492,44.235256129092122],[-85.386113432741055,44.234793198170806],[-85.385002226821641,44.234329676628946],[-85.3840418652685,44.234555729169728],[-85.382912579142385,44.235584682051659],[-85.382423111888926,44.236501483997586],[-85.381929210028616,44.237762358514075],[-85.382073970438427,44.23902587251677],[-85.382694112954056,44.240635803076472],[-85.3841111140149,44.242248376542193],[-85.386489486946843,44.243635160568651],[-85.387443185417084,44.243983299210939],[-85.38823720975644,44.244330849244584],[-85.389983003673819,44.245141016217637],[-85.392042245955722,44.246526519658211],[-85.394107129281011,44.247452845303059],[-85.39505896613953,44.24791570341938],[-85.396009226029321,44.248608134505488],[-85.397120793890409,44.249071261491267],[-85.398226469783424,44.250108598638612],[-85.399178377629553,44.250571703987909],[-85.400127553421569,44.251378601651794],[-85.400756559704504,44.252184641161065],[-85.401387539234392,44.252875895568202],[-85.401700295236921,44.25345123112092],[-85.401213330534063,44.254138255864554],[-85.400725174982028,44.254940062243371],[-85.400238185397626,44.2556270817471],[-85.399593427083488,44.256199034730699],[-85.398628045205598,44.256884068637426],[-85.397663038105023,44.257454587304835],[-85.396858516513433,44.258025673423411],[-85.396056349241505,44.258367179232579],[-85.395252992415351,44.258823468502371],[-85.394607368353036,44.259395102539372],[-85.393803978807071,44.259851381497541],[-85.392999390972378,44.260422436618761],[-85.392192800368136,44.261108551655084],[-85.391386203116554,44.26179409916989],[-85.390741291588995,44.262366001574364],[-85.389453835684392,44.263279371167648],[-85.390713811063051,44.264776780629987],[-85.390544125026864,44.265579695476639],[-85.390695902639038,44.26626926933902],[-85.391007424197952,44.266959418952851],[-85.391159212459286,44.267648710236962],[-85.391310998827066,44.268338283011133],[-85.388750996852721,44.268787875036217],[-85.391757652264374,44.271095421510935],[-85.391593112201974,44.271554272610906],[-85.391265642972044,44.272241546902102],[-85.391417441149144,44.27293111897103],[-85.389329742419761,44.273956663681773],[-85.394251954086485,44.276386157363774],[-85.394717806183166,44.277536009418448],[-85.395347017545816,44.278342075915234],[-85.395819627535943,44.278917996570513],[-85.39645083527077,44.279609275002066],[-85.396761716837005,44.280299122252877],[-85.397710156790879,44.281221102635577],[-85.39865901807282,44.282028568464675],[-85.399450084748139,44.282720113302858],[-85.400716614219903,44.283643195034266],[-85.401226425177299,44.283961572299148],[-85.401827311092887,44.284336414714389],[-85.403098220250129,44.284914833512126],[-85.404051510349987,44.285377899505939],[-85.405481090790573,44.286071918792366],[-85.4065911052095,44.286764809534688],[-85.408180549049959,44.287459349803143],[-85.409450420567808,44.288152766189178],[-85.41087896985114,44.288961785271034],[-85.411988736325668,44.289769130522835],[-85.412299847686938,44.290459495113183],[-85.412290976555568,44.291262994140737],[-85.412279007189269,44.292296340714714],[-85.412271294599151,44.292985050044315],[-85.412423391950014,44.293674591658537],[-85.412256641884994,44.294362759670662],[-85.411767148123133,44.295279674333457],[-85.411117028632333,44.296195756755374],[-85.41030747279035,44.297226355921765],[-85.409821407330327,44.297798344581416],[-85.408848863448071,44.299057949791035],[-85.408682436625398,44.299631318561232],[-85.408191673757756,44.300663007188028],[-85.407849859991714,44.302613521961689],[-85.407348174811645,44.304563482953192],[-85.407010586141581,44.306169922235441],[-85.407003977565324,44.306743564008549],[-85.407945604177456,44.308239940660016],[-85.408731699371415,44.309390557689134],[-85.408884963648617,44.309965315667071],[-85.410463838672072,44.311693449023657],[-85.412201899918529,44.313421542407632],[-85.413629946768154,44.314345309819984],[-85.414898160873079,44.315268232307659],[-85.415850106590284,44.31584569694467],[-85.417753696405626,44.317115394421847],[-85.419026250215722,44.317693914848654],[-85.421409623378167,44.318965167412877],[-85.423158080992252,44.31977509358935],[-85.425698131023537,44.321391142359651],[-85.426649153798664,44.322083304480827],[-85.429354128076426,44.323125869052888],[-85.430307128949195,44.323703216361118],[-85.431578046389646,44.324396381332882],[-85.433491619263336,44.324862041965453],[-85.435553887803039,44.326247019481521],[-85.436506998949469,44.326824035634182],[-85.437301320981874,44.327286024578662],[-85.439368965850804,44.328211511378157],[-85.440799999980058,44.328905083128568],[-85.442708620407359,44.329830009375684],[-85.444615424138902,44.330869402438822],[-85.44541205747548,44.331101481182408],[-85.447002065134186,44.331910543551466],[-85.449071888203008,44.332721075927488],[-85.450661992589943,44.333529805318605],[-85.452253220051574,44.334223728846318],[-85.454161407785776,44.335148456295371],[-85.455275849098257,44.335611016906242],[-85.456231448499025,44.335958574856662],[-85.457027120029792,44.336305640431483],[-85.458776302731451,44.33722952964844],[-85.460686813917675,44.337924579464264],[-85.461482540821507,44.338271613882462],[-85.462437159332737,44.338733623328814],[-85.463124486176199,44.338934109779423]],[[-85.487476960313117,44.264410411398245],[-85.485567734614961,44.263716079850887],[-85.483180123040142,44.263020371596532],[-85.482222735315872,44.262902603899136],[-85.48030850372794,44.26278212041494],[-85.478715019131556,44.26243293506402],[-85.476972643065736,44.261049914690226],[-85.47602795342938,44.259784234191962],[-85.475717532720353,44.2588647411946],[-85.475564534406487,44.258290071781644],[-85.47509234773409,44.257599970583207],[-85.474780921440029,44.256795260918445],[-85.474468472586693,44.256105338339822],[-85.473998132391728,44.255300169721544],[-85.473209412687851,44.254379566709034],[-85.47226724264145,44.252769205624816],[-85.471321743428717,44.251617990552859],[-85.470850699127027,44.250813087346756],[-85.470219706179861,44.250122502477218],[-85.470065998871036,44.249547821114689],[-85.469275597461319,44.248741691745472],[-85.468804339943745,44.248051566991386],[-85.468177588348453,44.246901259621609],[-85.467391170069902,44.245750758616829],[-85.46707781848221,44.245175601728434],[-85.466448244023667,44.244255417875017],[-85.466295374035269,44.243680736340899],[-85.465823410361111,44.242990595852056],[-85.465512187823634,44.242185858789377],[-85.465200706369103,44.241495912724375],[-85.464410478123753,44.240689748460007],[-85.46329959747321,44.240112201409204],[-85.46234762120551,44.239535404163988],[-85.46171685106394,44.238844489058543],[-85.461085316755003,44.238153569363845],[-85.461093513516218,44.237349778664431],[-85.461906103144955,44.235974735943252],[-85.462393266890103,44.235172663399808],[-85.463677928615908,44.234372972233629],[-85.464639032407405,44.234031463691331],[-85.466080141090231,44.233576865292882],[-85.467199821571,44.233350598072647],[-85.46847837023094,44.233125066689105],[-85.469277685737694,44.233012623669332],[-85.470876565143598,44.23267293591833],[-85.47167586738594,44.23256075790313],[-85.473273685162326,44.23233582415596],[-85.474554001685135,44.231995439887079],[-85.475354316701257,44.231768171202368],[-85.476794262547514,44.231427939755982],[-85.477913079720423,44.231201562949678],[-85.479507765333139,44.231321468496901],[-85.48030318587098,44.231553308542608],[-85.481418696975595,44.231786334325513],[-85.483010590896527,44.232135195426075],[-85.484123544004262,44.232482975231932],[-85.485076622759564,44.232945086529114],[-85.486029716415175,44.233407191622291],[-85.486822165494445,44.233983631796399],[-85.48729531068085,44.23455889963541],[-85.487766673875427,44.235249227735814],[-85.488716815331841,44.236055393066188],[-85.48998574245482,44.236748194842235],[-85.49093993968809,44.237095472759286],[-85.491893152475114,44.237557244907457],[-85.492687705275074,44.237904068620075],[-85.493642933020794,44.238136254430714],[-85.494600941853776,44.238139137794036],[-85.496362243836373,44.237570234502769],[-85.497162762815265,44.237227740252102],[-85.498768088074556,44.236313729006653],[-85.500210956405255,44.235629123916816],[-85.50117186990613,44.235287307234422],[-85.502771601020726,44.234832666255549],[-85.503888239583659,44.234950402684461],[-85.505322446437788,44.235183749733352],[-85.506114318791603,44.235760333059851],[-85.50690505616312,44.236565926157127],[-85.507378414071439,44.237141391181886],[-85.507850032694336,44.237831637603314],[-85.508162773307916,44.238521471540096],[-85.508316827381009,44.239095540539758],[-85.508467974550157,44.240014814116186],[-85.50845770423301,44.241047897295616],[-85.508128854861127,44.242080153448732],[-85.507801154717413,44.24288311255544],[-85.506841908026061,44.243110197786265],[-85.505726868122963,44.242877423694779],[-85.504612804293885,44.242530136454043],[-85.503657464776808,44.242297762714671],[-85.502860832180815,44.242180590941771],[-85.501738176925969,44.242751570323591],[-85.501252464665129,44.243439021657977],[-85.500766739844096,44.244126470852756],[-85.500281006219566,44.244813917924326],[-85.500434006203804,44.245503346303643],[-85.500425362678783,44.246421640316214],[-85.500897757258798,44.247112203266759],[-85.501207724056172,44.248031343147133],[-85.502312464602397,44.249297238812972],[-85.503103322083589,44.250103421665763],[-85.503257356272343,44.250677775503036],[-85.503250708541728,44.251366497618093],[-85.502924645344478,44.252054658495943],[-85.501805724139359,44.252166206313376],[-85.500691311960949,44.251933668777703],[-85.49973406951348,44.251816048460057],[-85.498285863059266,44.253074864728632],[-85.497315163806903,44.254335224603118],[-85.497147744328117,44.255138305037747],[-85.497295006167988,44.256401950378937],[-85.497448010245549,44.257091099666987],[-85.497121846533204,44.257779242497151],[-85.496477016690648,44.258465963277565],[-85.495346467367668,44.259725877748856],[-85.4946996071494,44.260642443620142],[-85.494054926664802,44.261214641536711],[-85.493088780822703,44.262015540615884],[-85.492443855278367,44.262702519999252],[-85.491638397785053,44.263389336169304],[-85.490994441862711,44.263961518318631],[-85.487476960313117,44.264410411398245]]]},"properties":{"OBJECTID":1588,"TextCode":"06","Code":6,"Label":"Lacustrine sand and gravel","Shape.STArea()":50947268.66111099,"Shape.STLength()":67731.562886095766}}]}