{"type":"FeatureCollection","features":[{"type":"Feature","id":1164907,"geometry":{"type":"Point","coordinates":[-85.396158999999955,44.264237000000094]},"properties":{"OBJECTID":1164907,"WELLID":"83000000974","COUNTY":"Wexford","PERMIT_NUM":null,"TOWNSHIP":"Haring","TOWN":"22N","RANGE":"09W","SECTION":34,"OWNER_NAME":"PAULEY, CLIFFORD A.","WELL_ADDR":"1118 PLETT ROAD","WELL_CITY":"CADILLAC","WELL_ZIP":"49601","WELL_DEPTH":75,"WELL_TYPE":"HOSHLD","TYPE_OTHER":null,"WEL_STATUS":"ACT","STATUS_OTH":null,"WSSN":null,"WELL_NUM":null,"DRILLER_ID":"57-1266","DRILL_METH":"DRIVEN","METH_OTHER":null,"CONST_DATE":"1996-04-20 00:00:00","CASE_TYPE":"STEBLA","CASE_OTHER":null,"CASE_DIA":2,"CASE_DEPTH":71,"SCREEN_FRM":71,"SCREEN_TO":75,"SWL":44,"FLOWING":"N","AQ_TYPE":"DRIFT","TEST_DEPTH":null,"TEST_HOURS":null,"TEST_RATE":null,"TEST_METHD":"UNK","TEST_OTHER":null,"GROUT":"Y","PMP_CPCITY":null,"LATITUDE":44.264237000000001,"LONGITUDE":-85.396158999999997,"METHD_COLL":"018","ELEVATION":null,"ELEV_METHD":null,"WITHIN_CO":null,"WITHIN_SEC":"Y","LOC_MATCH":"Y","SEC_DIST":"Yes","ELEV_DEM":1342,"ELEV_DIF":null,"LANDSYS":"ICE-CONTACT OUTWASH","DEPTH_FLAG":null,"ELEV_FLAG":null,"SWL_FLAG":null,"SPC_CPCITY":null,"AQ_CODE":"D","ROCK_TOP":null,"AQ_THK_1":31,"AQ_THK_2":31,"AQ_THK_D":72,"H_COND_1":100,"H_COND_2":100,"V_COND_1":100,"V_COND_2":100,"TRANSMSV_1":3100,"TRANSMSV_2":3100,"B_AQ_THK":null,"B_H_COND":null,"B_V_COND":null,"B_TRANS":null,"AQ_THICK_D":null,"H_COND_D":100,"V_COND_D":100,"TRANS_D":7200,"AQ_FLAG":null,"SCRN_FLAG":null,"NOTES":null,"WELLCODE":null,"TOPAQ":44,"BOTAQ":75,"WWAT_ID":null}},{"type":"Feature","id":1172326,"geometry":{"type":"Point","coordinates":[-85.402026999999919,44.258078000000125]},"properties":{"OBJECTID":1172326,"WELLID":"83000008995","COUNTY":"Wexford","PERMIT_NUM":null,"TOWNSHIP":"Haring","TOWN":"22N","RANGE":"09W","SECTION":33,"OWNER_NAME":"JOHN O BRIEN","WELL_ADDR":"810 N SIMON ST","WELL_CITY":"CADILLAC","WELL_ZIP":"49601","WELL_DEPTH":55,"WELL_TYPE":"HOSHLD","TYPE_OTHER":null,"WEL_STATUS":"ACT","STATUS_OTH":null,"WSSN":null,"WELL_NUM":null,"DRILLER_ID":"84-1089","DRILL_METH":"CABTOO","METH_OTHER":null,"CONST_DATE":"1989-09-09 00:00:00","CASE_TYPE":"STEUNK","CASE_OTHER":null,"CASE_DIA":2,"CASE_DEPTH":55,"SCREEN_FRM":50,"SCREEN_TO":55,"SWL":30,"FLOWING":"U","AQ_TYPE":null,"TEST_DEPTH":35,"TEST_HOURS":0.5,"TEST_RATE":null,"TEST_METHD":"UNK","TEST_OTHER":null,"GROUT":"Y","PMP_CPCITY":null,"LATITUDE":44.258077999999998,"LONGITUDE":-85.402027000000004,"METHD_COLL":"018","ELEVATION":null,"ELEV_METHD":null,"WITHIN_CO":null,"WITHIN_SEC":"Y","LOC_MATCH":"Y","SEC_DIST":"Yes","ELEV_DEM":null,"ELEV_DIF":null,"LANDSYS":"Lacustrine coarse","DEPTH_FLAG":null,"ELEV_FLAG":null,"SWL_FLAG":null,"SPC_CPCITY":null,"AQ_CODE":"D","ROCK_TOP":null,"AQ_THK_1":22,"AQ_THK_2":22,"AQ_THK_D":48,"H_COND_1":62.5,"H_COND_2":62.5,"V_COND_1":40,"V_COND_2":40,"TRANSMSV_1":1375,"TRANSMSV_2":1375,"B_AQ_THK":null,"B_H_COND":null,"B_V_COND":null,"B_TRANS":null,"AQ_THICK_D":null,"H_COND_D":82.8125,"V_COND_D":59.25925926,"TRANS_D":3975,"AQ_FLAG":null,"SCRN_FLAG":null,"NOTES":null,"WELLCODE":null,"TOPAQ":33,"BOTAQ":55,"WWAT_ID":null}},{"type":"Feature","id":1166799,"geometry":{"type":"Point","coordinates":[-85.396822999999927,44.271326999999985]},"properties":{"OBJECTID":1166799,"WELLID":"83000003037","COUNTY":"Wexford","PERMIT_NUM":"83-00908","TOWNSHIP":"Haring","TOWN":"22N","RANGE":"09W","SECTION":28,"OWNER_NAME":"DONALD & IRENE RICHARDSON","WELL_ADDR":"1529 PLETT ROAD","WELL_CITY":"CADILLAC","WELL_ZIP":"496011149","WELL_DEPTH":58,"WELL_TYPE":"HOSHLD","TYPE_OTHER":null,"WEL_STATUS":"ACT","STATUS_OTH":null,"WSSN":null,"WELL_NUM":null,"DRILLER_ID":"83-2057","DRILL_METH":"CABTOO","METH_OTHER":null,"CONST_DATE":"2002-12-20 00:00:00","CASE_TYPE":"STEUNK","CASE_OTHER":null,"CASE_DIA":4,"CASE_DEPTH":54,"SCREEN_FRM":null,"SCREEN_TO":null,"SWL":35,"FLOWING":"N","AQ_TYPE":"DRIFT","TEST_DEPTH":40,"TEST_HOURS":2,"TEST_RATE":15,"TEST_METHD":"TSTPUM","TEST_OTHER":null,"GROUT":"Y","PMP_CPCITY":10,"LATITUDE":44.271326999999999,"LONGITUDE":-85.396822999999998,"METHD_COLL":"018","ELEVATION":null,"ELEV_METHD":null,"WITHIN_CO":null,"WITHIN_SEC":"Y","LOC_MATCH":"Y","SEC_DIST":"Yes","ELEV_DEM":1289,"ELEV_DIF":null,"LANDSYS":"LACUSTRINE COARSE","DEPTH_FLAG":null,"ELEV_FLAG":null,"SWL_FLAG":null,"SPC_CPCITY":0.375,"AQ_CODE":"D","ROCK_TOP":null,"AQ_THK_1":23,"AQ_THK_2":23,"AQ_THK_D":52,"H_COND_1":50,"H_COND_2":50,"V_COND_1":50,"V_COND_2":50,"TRANSMSV_1":1150,"TRANSMSV_2":1150,"B_AQ_THK":null,"B_H_COND":null,"B_V_COND":null,"B_TRANS":null,"AQ_THICK_D":null,"H_COND_D":50,"V_COND_D":50,"TRANS_D":2600,"AQ_FLAG":null,"SCRN_FLAG":null,"NOTES":null,"WELLCODE":null,"TOPAQ":35,"BOTAQ":58,"WWAT_ID":null}},{"type":"Feature","id":1172346,"geometry":{"type":"Point","coordinates":[-85.396750999999938,44.260423000000003]},"properties":{"OBJECTID":1172346,"WELLID":"83000009015","COUNTY":"Wexford","PERMIT_NUM":null,"TOWNSHIP":"Haring","TOWN":"22N","RANGE":"09W","SECTION":33,"OWNER_NAME":"DALE LITTLE","WELL_ADDR":"923 PLETT RD","WELL_CITY":"CADILLAC","WELL_ZIP":"49601","WELL_DEPTH":98,"WELL_TYPE":"HOSHLD","TYPE_OTHER":null,"WEL_STATUS":"ACT","STATUS_OTH":null,"WSSN":null,"WELL_NUM":null,"DRILLER_ID":"84-1089","DRILL_METH":"HOLROD","METH_OTHER":null,"CONST_DATE":"1977-12-16 00:00:00","CASE_TYPE":"UNK","CASE_OTHER":null,"CASE_DIA":2,"CASE_DEPTH":98,"SCREEN_FRM":94,"SCREEN_TO":98,"SWL":76,"FLOWING":"U","AQ_TYPE":null,"TEST_DEPTH":76,"TEST_HOURS":0.5,"TEST_RATE":null,"TEST_METHD":"UNK","TEST_OTHER":null,"GROUT":"U","PMP_CPCITY":null,"LATITUDE":44.260423000000003,"LONGITUDE":-85.396750999999995,"METHD_COLL":"018","ELEVATION":null,"ELEV_METHD":null,"WITHIN_CO":null,"WITHIN_SEC":"Y","LOC_MATCH":"Y","SEC_DIST":"Yes","ELEV_DEM":null,"ELEV_DIF":null,"LANDSYS":"Lacustrine coarse","DEPTH_FLAG":null,"ELEV_FLAG":null,"SWL_FLAG":null,"SPC_CPCITY":null,"AQ_CODE":"D","ROCK_TOP":null,"AQ_THK_1":22,"AQ_THK_2":22,"AQ_THK_D":98,"H_COND_1":100,"H_COND_2":100,"V_COND_1":100,"V_COND_2":100,"TRANSMSV_1":2200,"TRANSMSV_2":2200,"B_AQ_THK":null,"B_H_COND":null,"B_V_COND":null,"B_TRANS":null,"AQ_THICK_D":null,"H_COND_D":100,"V_COND_D":100,"TRANS_D":9800,"AQ_FLAG":null,"SCRN_FLAG":null,"NOTES":null,"WELLCODE":null,"TOPAQ":76,"BOTAQ":98,"WWAT_ID":null}},{"type":"Feature","id":1168894,"geometry":{"type":"Point","coordinates":[-85.395959999999945,44.266620000000046]},"properties":{"OBJECTID":1168894,"WELLID":"83000005354","COUNTY":"Wexford","PERMIT_NUM":"W07-83-002","TOWNSHIP":"Haring","TOWN":"22N","RANGE":"09W","SECTION":34,"OWNER_NAME":"Charles Wiltzer","WELL_ADDR":"9052 East 13th Street","WELL_CITY":"Cadillac","WELL_ZIP":"49601","WELL_DEPTH":41,"WELL_TYPE":"TY2PU","TYPE_OTHER":null,"WEL_STATUS":"ACT","STATUS_OTH":null,"WSSN":2028783,"WELL_NUM":"001","DRILLER_ID":"57-1943","DRILL_METH":"CABTOO","METH_OTHER":null,"CONST_DATE":"2007-12-21 00:00:00","CASE_TYPE":"STEGAL","CASE_OTHER":null,"CASE_DIA":4,"CASE_DEPTH":35,"SCREEN_FRM":36,"SCREEN_TO":41,"SWL":18,"FLOWING":"N","AQ_TYPE":"DRIFT","TEST_DEPTH":null,"TEST_HOURS":1,"TEST_RATE":25,"TEST_METHD":"PLUGR","TEST_OTHER":null,"GROUT":"Y","PMP_CPCITY":26,"LATITUDE":44.266620000000003,"LONGITUDE":-85.395960000000002,"METHD_COLL":"015","ELEVATION":null,"ELEV_METHD":null,"WITHIN_CO":null,"WITHIN_SEC":"Y","LOC_MATCH":"Y","SEC_DIST":"Yes","ELEV_DEM":1289,"ELEV_DIF":null,"LANDSYS":"LACUSTRINE COARSE","DEPTH_FLAG":null,"ELEV_FLAG":null,"SWL_FLAG":null,"SPC_CPCITY":null,"AQ_CODE":"D","ROCK_TOP":null,"AQ_THK_1":23,"AQ_THK_2":23,"AQ_THK_D":41,"H_COND_1":82.608695650000001,"H_COND_2":82.608695650000001,"V_COND_1":74.193548390000004,"V_COND_2":74.193548390000004,"TRANSMSV_1":1900,"TRANSMSV_2":1900,"B_AQ_THK":null,"B_H_COND":null,"B_V_COND":null,"B_TRANS":null,"AQ_THICK_D":null,"H_COND_D":68.292682929999998,"V_COND_D":61.19402985,"TRANS_D":2800,"AQ_FLAG":null,"SCRN_FLAG":null,"NOTES":null,"WELLCODE":null,"TOPAQ":18,"BOTAQ":41,"WWAT_ID":null}},{"type":"Feature","id":1172235,"geometry":{"type":"Point","coordinates":[-85.407858000000033,44.267224000000112]},"properties":{"OBJECTID":1172235,"WELLID":"83000008903","COUNTY":"Wexford","PERMIT_NUM":null,"TOWNSHIP":"Haring","TOWN":"22N","RANGE":"09W","SECTION":28,"OWNER_NAME":"CAS CO","WELL_ADDR":"180 W 13TH ST","WELL_CITY":"CADILLAC","WELL_ZIP":"49601","WELL_DEPTH":68,"WELL_TYPE":"HOSHLD","TYPE_OTHER":null,"WEL_STATUS":"ACT","STATUS_OTH":null,"WSSN":null,"WELL_NUM":null,"DRILLER_ID":"84-0519","DRILL_METH":"HOLROD","METH_OTHER":null,"CONST_DATE":"1973-01-01 00:00:00","CASE_TYPE":"UNK","CASE_OTHER":null,"CASE_DIA":2,"CASE_DEPTH":null,"SCREEN_FRM":null,"SCREEN_TO":null,"SWL":36,"FLOWING":"U","AQ_TYPE":null,"TEST_DEPTH":null,"TEST_HOURS":null,"TEST_RATE":null,"TEST_METHD":"UNK","TEST_OTHER":null,"GROUT":"U","PMP_CPCITY":10,"LATITUDE":44.267223999999999,"LONGITUDE":-85.407858000000004,"METHD_COLL":"018","ELEVATION":null,"ELEV_METHD":null,"WITHIN_CO":null,"WITHIN_SEC":"Y","LOC_MATCH":"Y","SEC_DIST":"Yes","ELEV_DEM":null,"ELEV_DIF":null,"LANDSYS":"Lacustrine coarse","DEPTH_FLAG":null,"ELEV_FLAG":null,"SWL_FLAG":null,"SPC_CPCITY":null,"AQ_CODE":"D","ROCK_TOP":null,"AQ_THK_1":29,"AQ_THK_2":29,"AQ_THK_D":65,"H_COND_1":100,"H_COND_2":100,"V_COND_1":100,"V_COND_2":100,"TRANSMSV_1":2900,"TRANSMSV_2":2900,"B_AQ_THK":null,"B_H_COND":null,"B_V_COND":null,"B_TRANS":null,"AQ_THICK_D":null,"H_COND_D":83.846153849999993,"V_COND_D":75.581395349999994,"TRANS_D":5450,"AQ_FLAG":null,"SCRN_FLAG":null,"NOTES":null,"WELLCODE":null,"TOPAQ":36,"BOTAQ":68,"WWAT_ID":null}},{"type":"Feature","id":1167386,"geometry":{"type":"Point","coordinates":[-85.394867999999917,44.263551000000007]},"properties":{"OBJECTID":1167386,"WELLID":"83000003689","COUNTY":"Wexford","PERMIT_NUM":"24325","TOWNSHIP":"Haring","TOWN":"22N","RANGE":"09W","SECTION":34,"OWNER_NAME":"CLIFFORD A. PAULEY","WELL_ADDR":"1118 PLETT ROAD","WELL_CITY":"CADILLAC","WELL_ZIP":"49601","WELL_DEPTH":75,"WELL_TYPE":"HOSHLD","TYPE_OTHER":null,"WEL_STATUS":"ACT","STATUS_OTH":null,"WSSN":null,"WELL_NUM":null,"DRILLER_ID":"57-1266","DRILL_METH":"JETTIN","METH_OTHER":null,"CONST_DATE":"1996-04-20 00:00:00","CASE_TYPE":"STEUNK","CASE_OTHER":null,"CASE_DIA":2,"CASE_DEPTH":71,"SCREEN_FRM":71,"SCREEN_TO":75,"SWL":44,"FLOWING":"N","AQ_TYPE":"DRIFT","TEST_DEPTH":null,"TEST_HOURS":null,"TEST_RATE":null,"TEST_METHD":"PLUGR","TEST_OTHER":null,"GROUT":"Y","PMP_CPCITY":null,"LATITUDE":44.263551,"LONGITUDE":-85.394868000000002,"METHD_COLL":"018","ELEVATION":1309,"ELEV_METHD":"014","WITHIN_CO":null,"WITHIN_SEC":"Y","LOC_MATCH":"Y","SEC_DIST":"Yes","ELEV_DEM":1309,"ELEV_DIF":null,"LANDSYS":"LACUSTRINE COARSE","DEPTH_FLAG":null,"ELEV_FLAG":null,"SWL_FLAG":null,"SPC_CPCITY":null,"AQ_CODE":"D","ROCK_TOP":null,"AQ_THK_1":31,"AQ_THK_2":31,"AQ_THK_D":72,"H_COND_1":50,"H_COND_2":50,"V_COND_1":50,"V_COND_2":50,"TRANSMSV_1":1550,"TRANSMSV_2":1550,"B_AQ_THK":null,"B_H_COND":null,"B_V_COND":null,"B_TRANS":null,"AQ_THICK_D":null,"H_COND_D":50,"V_COND_D":50,"TRANS_D":3600,"AQ_FLAG":null,"SCRN_FLAG":null,"NOTES":null,"WELLCODE":null,"TOPAQ":44,"BOTAQ":75,"WWAT_ID":null}},{"type":"Feature","id":1172704,"geometry":{"type":"Point","coordinates":[-85.396681599999965,44.268401900000072]},"properties":{"OBJECTID":1172704,"WELLID":"83000009373","COUNTY":"Wexford","PERMIT_NUM":"83-7652","TOWNSHIP":"Haring","TOWN":"22N","RANGE":"09W","SECTION":28,"OWNER_NAME":"Susan Hunt","WELL_ADDR":"1373 Plett  Rd","WELL_CITY":"Cadillac","WELL_ZIP":"49601","WELL_DEPTH":58,"WELL_TYPE":"HOSHLD","TYPE_OTHER":null,"WEL_STATUS":"ACT","STATUS_OTH":null,"WSSN":null,"WELL_NUM":null,"DRILLER_ID":"83-2489","DRILL_METH":"CABTOO","METH_OTHER":null,"CONST_DATE":"2023-12-07 00:00:00","CASE_TYPE":"STEGAL","CASE_OTHER":null,"CASE_DIA":4,"CASE_DEPTH":54,"SCREEN_FRM":54,"SCREEN_TO":58,"SWL":23,"FLOWING":"N","AQ_TYPE":null,"TEST_DEPTH":null,"TEST_HOURS":0.5,"TEST_RATE":12,"TEST_METHD":"BAIL","TEST_OTHER":null,"GROUT":"Y","PMP_CPCITY":10,"LATITUDE":44.268401900000001,"LONGITUDE":-85.396681599999994,"METHD_COLL":"001","ELEVATION":null,"ELEV_METHD":null,"WITHIN_CO":null,"WITHIN_SEC":"Y","LOC_MATCH":"Y","SEC_DIST":"Yes","ELEV_DEM":null,"ELEV_DIF":null,"LANDSYS":"Lacustrine coarse","DEPTH_FLAG":null,"ELEV_FLAG":null,"SWL_FLAG":null,"SPC_CPCITY":null,"AQ_CODE":"D","ROCK_TOP":null,"AQ_THK_1":35,"AQ_THK_2":35,"AQ_THK_D":58,"H_COND_1":50,"H_COND_2":50,"V_COND_1":50,"V_COND_2":50,"TRANSMSV_1":1750,"TRANSMSV_2":1750,"B_AQ_THK":null,"B_H_COND":null,"B_V_COND":null,"B_TRANS":null,"AQ_THICK_D":null,"H_COND_D":50,"V_COND_D":50,"TRANS_D":2900,"AQ_FLAG":null,"SCRN_FLAG":null,"NOTES":null,"WELLCODE":null,"TOPAQ":23,"BOTAQ":58,"WWAT_ID":null}},{"type":"Feature","id":1172349,"geometry":{"type":"Point","coordinates":[-85.396119999999939,44.264209999999991]},"properties":{"OBJECTID":1172349,"WELLID":"83000009018","COUNTY":"Wexford","PERMIT_NUM":null,"TOWNSHIP":"Haring","TOWN":"22N","RANGE":"09W","SECTION":34,"OWNER_NAME":"LAWRENCE FAUBLE","WELL_ADDR":"1118 PLETT RD","WELL_CITY":"CADILLAC","WELL_ZIP":"49601","WELL_DEPTH":75,"WELL_TYPE":"HOSHLD","TYPE_OTHER":null,"WEL_STATUS":"ACT","STATUS_OTH":null,"WSSN":null,"WELL_NUM":null,"DRILLER_ID":"84-0519","DRILL_METH":"HOLROD","METH_OTHER":null,"CONST_DATE":"1979-01-01 00:00:00","CASE_TYPE":"UNK","CASE_OTHER":null,"CASE_DIA":2,"CASE_DEPTH":null,"SCREEN_FRM":null,"SCREEN_TO":null,"SWL":45,"FLOWING":"U","AQ_TYPE":null,"TEST_DEPTH":null,"TEST_HOURS":null,"TEST_RATE":null,"TEST_METHD":"UNK","TEST_OTHER":null,"GROUT":"U","PMP_CPCITY":7,"LATITUDE":44.264209999999999,"LONGITUDE":-85.396119999999996,"METHD_COLL":"018","ELEVATION":null,"ELEV_METHD":null,"WITHIN_CO":null,"WITHIN_SEC":"Y","LOC_MATCH":"Y","SEC_DIST":"Yes","ELEV_DEM":null,"ELEV_DIF":null,"LANDSYS":"Lacustrine coarse","DEPTH_FLAG":null,"ELEV_FLAG":null,"SWL_FLAG":null,"SPC_CPCITY":null,"AQ_CODE":"D","ROCK_TOP":null,"AQ_THK_1":15,"AQ_THK_2":15,"AQ_THK_D":50,"H_COND_1":50,"H_COND_2":50,"V_COND_1":50,"V_COND_2":50,"TRANSMSV_1":750,"TRANSMSV_2":750,"B_AQ_THK":null,"B_H_COND":null,"B_V_COND":null,"B_TRANS":null,"AQ_THICK_D":null,"H_COND_D":50,"V_COND_D":50,"TRANS_D":2500,"AQ_FLAG":null,"SCRN_FLAG":null,"NOTES":null,"WELLCODE":null,"TOPAQ":60,"BOTAQ":75,"WWAT_ID":null}},{"type":"Feature","id":1172330,"geometry":{"type":"Point","coordinates":[-85.400723999999968,44.264409999999998]},"properties":{"OBJECTID":1172330,"WELLID":"83000008999","COUNTY":"Wexford","PERMIT_NUM":null,"TOWNSHIP":"Haring","TOWN":"22N","RANGE":"09W","SECTION":33,"OWNER_NAME":"BILLY MCKINLEY","WELL_ADDR":"1128 RIVERSIDE","WELL_CITY":"RIVERSIDE ST","WELL_ZIP":"49601    ","WELL_DEPTH":36,"WELL_TYPE":"HOSHLD","TYPE_OTHER":null,"WEL_STATUS":"ACT","STATUS_OTH":null,"WSSN":null,"WELL_NUM":null,"DRILLER_ID":"84-1089","DRILL_METH":"HOLROD","METH_OTHER":null,"CONST_DATE":"1977-05-24 00:00:00","CASE_TYPE":"UNK","CASE_OTHER":null,"CASE_DIA":2,"CASE_DEPTH":36,"SCREEN_FRM":32,"SCREEN_TO":36,"SWL":16,"FLOWING":"U","AQ_TYPE":null,"TEST_DEPTH":20,"TEST_HOURS":0.5,"TEST_RATE":null,"TEST_METHD":"UNK","TEST_OTHER":null,"GROUT":"U","PMP_CPCITY":null,"LATITUDE":44.264409999999998,"LONGITUDE":-85.400723999999997,"METHD_COLL":"019","ELEVATION":null,"ELEV_METHD":null,"WITHIN_CO":null,"WITHIN_SEC":"Y","LOC_MATCH":"Y","SEC_DIST":"Yes","ELEV_DEM":null,"ELEV_DIF":null,"LANDSYS":"Lacustrine coarse","DEPTH_FLAG":null,"ELEV_FLAG":null,"SWL_FLAG":null,"SPC_CPCITY":null,"AQ_CODE":"D","ROCK_TOP":null,"AQ_THK_1":20,"AQ_THK_2":20,"AQ_THK_D":36,"H_COND_1":100,"H_COND_2":100,"V_COND_1":100,"V_COND_2":100,"TRANSMSV_1":2000,"TRANSMSV_2":2000,"B_AQ_THK":null,"B_H_COND":null,"B_V_COND":null,"B_TRANS":null,"AQ_THICK_D":null,"H_COND_D":100,"V_COND_D":100,"TRANS_D":3600,"AQ_FLAG":null,"SCRN_FLAG":null,"NOTES":null,"WELLCODE":null,"TOPAQ":16,"BOTAQ":36,"WWAT_ID":null}},{"type":"Feature","id":1166828,"geometry":{"type":"Point","coordinates":[-85.396341000000007,44.261229000000071]},"properties":{"OBJECTID":1166828,"WELLID":"83000003069","COUNTY":"Wexford","PERMIT_NUM":"83-00332","TOWNSHIP":"Haring","TOWN":"22N","RANGE":"09W","SECTION":34,"OWNER_NAME":"Cadillac Revival Center","WELL_ADDR":"934 Plett Road","WELL_CITY":"Cadillac","WELL_ZIP":"49601","WELL_DEPTH":215,"WELL_TYPE":"TY2PU","TYPE_OTHER":null,"WEL_STATUS":"ACT","STATUS_OTH":null,"WSSN":2027383,"WELL_NUM":"001","DRILLER_ID":"83-2057","DRILL_METH":"ROTARY","METH_OTHER":null,"CONST_DATE":"2001-11-01 00:00:00","CASE_TYPE":"PVCPLA","CASE_OTHER":null,"CASE_DIA":4,"CASE_DEPTH":205,"SCREEN_FRM":205,"SCREEN_TO":215,"SWL":90,"FLOWING":"N","AQ_TYPE":"DRIFT","TEST_DEPTH":110,"TEST_HOURS":2,"TEST_RATE":50,"TEST_METHD":"TSTPUM","TEST_OTHER":null,"GROUT":"Y","PMP_CPCITY":null,"LATITUDE":44.261229,"LONGITUDE":-85.396341000000007,"METHD_COLL":"001","ELEVATION":951,"ELEV_METHD":"014","WITHIN_CO":null,"WITHIN_SEC":"Y","LOC_MATCH":"Y","SEC_DIST":"Yes","ELEV_DEM":1345,"ELEV_DIF":null,"LANDSYS":"LACUSTRINE COARSE","DEPTH_FLAG":null,"ELEV_FLAG":null,"SWL_FLAG":null,"SPC_CPCITY":0.45454545000000002,"AQ_CODE":"D","ROCK_TOP":null,"AQ_THK_1":108,"AQ_THK_2":108,"AQ_THK_D":170,"H_COND_1":50,"H_COND_2":50,"V_COND_1":50,"V_COND_2":50,"TRANSMSV_1":5400,"TRANSMSV_2":5400,"B_AQ_THK":null,"B_H_COND":null,"B_V_COND":null,"B_TRANS":null,"AQ_THICK_D":null,"H_COND_D":63.823529409999999,"V_COND_D":58.020477820000004,"TRANS_D":10850,"AQ_FLAG":null,"SCRN_FLAG":null,"NOTES":null,"WELLCODE":null,"TOPAQ":107,"BOTAQ":215,"WWAT_ID":null}},{"type":"Feature","id":1173249,"geometry":{"type":"Point","coordinates":[-85.401914103899969,44.266758260500012]},"properties":{"OBJECTID":1173249,"WELLID":"83000009966","COUNTY":"Wexford","PERMIT_NUM":null,"TOWNSHIP":"Haring","TOWN":"22N","RANGE":"09W","SECTION":33,"OWNER_NAME":"EUGENIA MARTIN","WELL_ADDR":"402 E 13th St","WELL_CITY":"CADILLAC","WELL_ZIP":"49601","WELL_DEPTH":39,"WELL_TYPE":"HOSHLD","TYPE_OTHER":null,"WEL_STATUS":"ACT","STATUS_OTH":null,"WSSN":null,"WELL_NUM":null,"DRILLER_ID":"83-0475","DRILL_METH":"HOLROD","METH_OTHER":null,"CONST_DATE":"1969-10-15 00:00:00","CASE_TYPE":"UNK","CASE_OTHER":null,"CASE_DIA":2,"CASE_DEPTH":36,"SCREEN_FRM":36,"SCREEN_TO":39,"SWL":26,"FLOWING":"N","AQ_TYPE":null,"TEST_DEPTH":26,"TEST_HOURS":2,"TEST_RATE":7,"TEST_METHD":"UNK","TEST_OTHER":null,"GROUT":"N","PMP_CPCITY":5,"LATITUDE":44.266758260499998,"LONGITUDE":-85.401914103899998,"METHD_COLL":"018","ELEVATION":null,"ELEV_METHD":null,"WITHIN_CO":null,"WITHIN_SEC":"Y","LOC_MATCH":"Y","SEC_DIST":"Yes","ELEV_DEM":null,"ELEV_DIF":null,"LANDSYS":"Lacustrine coarse","DEPTH_FLAG":null,"ELEV_FLAG":null,"SWL_FLAG":null,"SPC_CPCITY":null,"AQ_CODE":"D","ROCK_TOP":null,"AQ_THK_1":13,"AQ_THK_2":13,"AQ_THK_D":39,"H_COND_1":50,"H_COND_2":50,"V_COND_1":50,"V_COND_2":50,"TRANSMSV_1":650,"TRANSMSV_2":650,"B_AQ_THK":null,"B_H_COND":null,"B_V_COND":null,"B_TRANS":null,"AQ_THICK_D":null,"H_COND_D":56.410256410000002,"V_COND_D":53.424657529999998,"TRANS_D":2200,"AQ_FLAG":null,"SCRN_FLAG":null,"NOTES":null,"WELLCODE":null,"TOPAQ":26,"BOTAQ":39,"WWAT_ID":null}},{"type":"Feature","id":1167060,"geometry":{"type":"Point","coordinates":[-85.397669500000006,44.257139700000096]},"properties":{"OBJECTID":1167060,"WELLID":"83000003342","COUNTY":"Wexford","PERMIT_NUM":null,"TOWNSHIP":"Haring","TOWN":"22N","RANGE":"09W","SECTION":33,"OWNER_NAME":"CITY OF CADILLAC","WELL_ADDR":"NORTH ST.","WELL_CITY":"CADILLAC","WELL_ZIP":"49601","WELL_DEPTH":373,"WELL_TYPE":"OTH","TYPE_OTHER":"WELL HEAD PROTECTION","WEL_STATUS":"ACT","STATUS_OTH":null,"WSSN":null,"WELL_NUM":null,"DRILLER_ID":"70-2055","DRILL_METH":"ROTARY","METH_OTHER":null,"CONST_DATE":"2003-09-17 00:00:00","CASE_TYPE":"PVCPLA","CASE_OTHER":null,"CASE_DIA":5,"CASE_DEPTH":353,"SCREEN_FRM":353,"SCREEN_TO":373,"SWL":123,"FLOWING":"N","AQ_TYPE":"DRIFT","TEST_DEPTH":139,"TEST_HOURS":24,"TEST_RATE":52,"TEST_METHD":"TSTPUM","TEST_OTHER":null,"GROUT":"Y","PMP_CPCITY":null,"LATITUDE":44.257139700000003,"LONGITUDE":-85.397669500000006,"METHD_COLL":"002","ELEVATION":null,"ELEV_METHD":null,"WITHIN_CO":null,"WITHIN_SEC":"Y","LOC_MATCH":"Y","SEC_DIST":"Yes","ELEV_DEM":1401,"ELEV_DIF":null,"LANDSYS":"ICE-CONTACT OUTWASH","DEPTH_FLAG":null,"ELEV_FLAG":null,"SWL_FLAG":null,"SPC_CPCITY":0.37410072,"AQ_CODE":"D","ROCK_TOP":null,"AQ_THK_1":27,"AQ_THK_2":186,"AQ_THK_D":307,"H_COND_1":100,"H_COND_2":23.064516130000001,"V_COND_1":100,"V_COND_2":11.50278293,"TRANSMSV_1":2700,"TRANSMSV_2":4290,"B_AQ_THK":null,"B_H_COND":null,"B_V_COND":null,"B_TRANS":null,"AQ_THICK_D":null,"H_COND_D":52.508143320000002,"V_COND_D":17.393767709999999,"TRANS_D":16120,"AQ_FLAG":null,"SCRN_FLAG":null,"NOTES":null,"WELLCODE":null,"TOPAQ":346,"BOTAQ":373,"WWAT_ID":null}},{"type":"Feature","id":1166107,"geometry":{"type":"Point","coordinates":[-85.396836999999948,44.270272000000091]},"properties":{"OBJECTID":1166107,"WELLID":"83000002318","COUNTY":"Wexford","PERMIT_NUM":"32460","TOWNSHIP":"Haring","TOWN":"22N","RANGE":"09W","SECTION":28,"OWNER_NAME":"RANDOLPH BAKER","WELL_ADDR":"1517 PLETT ROAD","WELL_CITY":"CADILLAC","WELL_ZIP":"49601","WELL_DEPTH":53,"WELL_TYPE":"HOSHLD","TYPE_OTHER":null,"WEL_STATUS":"ACT","STATUS_OTH":null,"WSSN":null,"WELL_NUM":null,"DRILLER_ID":"83-1981","DRILL_METH":"ROTARY","METH_OTHER":null,"CONST_DATE":"2000-10-03 00:00:00","CASE_TYPE":"PVCPLA","CASE_OTHER":null,"CASE_DIA":5,"CASE_DEPTH":46,"SCREEN_FRM":46,"SCREEN_TO":53,"SWL":30,"FLOWING":"N","AQ_TYPE":"DRIFT","TEST_DEPTH":45,"TEST_HOURS":null,"TEST_RATE":null,"TEST_METHD":"AIR","TEST_OTHER":null,"GROUT":"Y","PMP_CPCITY":10,"LATITUDE":44.270271999999999,"LONGITUDE":-85.396837000000005,"METHD_COLL":"001","ELEVATION":null,"ELEV_METHD":null,"WITHIN_CO":null,"WITHIN_SEC":"Y","LOC_MATCH":"Y","SEC_DIST":"Yes","ELEV_DEM":1283,"ELEV_DIF":null,"LANDSYS":"LACUSTRINE COARSE","DEPTH_FLAG":null,"ELEV_FLAG":null,"SWL_FLAG":null,"SPC_CPCITY":null,"AQ_CODE":"D","ROCK_TOP":null,"AQ_THK_1":23,"AQ_THK_2":23,"AQ_THK_D":53,"H_COND_1":50,"H_COND_2":50,"V_COND_1":50,"V_COND_2":50,"TRANSMSV_1":1150,"TRANSMSV_2":1150,"B_AQ_THK":null,"B_H_COND":null,"B_V_COND":null,"B_TRANS":null,"AQ_THICK_D":null,"H_COND_D":38.718867920000001,"V_COND_D":0.47397602999999999,"TRANS_D":2052.0999999999999,"AQ_FLAG":null,"SCRN_FLAG":null,"NOTES":null,"WELLCODE":null,"TOPAQ":30,"BOTAQ":53,"WWAT_ID":null}},{"type":"Feature","id":1172158,"geometry":{"type":"Point","coordinates":[-85.396874999999966,44.271296000000063]},"properties":{"OBJECTID":1172158,"WELLID":"83000008826","COUNTY":"Wexford","PERMIT_NUM":"29533","TOWNSHIP":"Haring","TOWN":"22N","RANGE":"09W","SECTION":28,"OWNER_NAME":"DAVID L POLEGA","WELL_ADDR":"1529 PLETT RD","WELL_CITY":"CADILLAC","WELL_ZIP":"49601","WELL_DEPTH":54,"WELL_TYPE":"HOSHLD","TYPE_OTHER":null,"WEL_STATUS":"ACT","STATUS_OTH":null,"WSSN":null,"WELL_NUM":null,"DRILLER_ID":"84-1567","DRILL_METH":"ROTARY","METH_OTHER":null,"CONST_DATE":"1999-05-14 00:00:00","CASE_TYPE":"PVCPLA","CASE_OTHER":null,"CASE_DIA":5,"CASE_DEPTH":50,"SCREEN_FRM":50,"SCREEN_TO":54,"SWL":28,"FLOWING":"U","AQ_TYPE":null,"TEST_DEPTH":40,"TEST_HOURS":1,"TEST_RATE":14,"TEST_METHD":"TSTPUM","TEST_OTHER":null,"GROUT":"Y","PMP_CPCITY":12,"LATITUDE":44.271296,"LONGITUDE":-85.396874999999994,"METHD_COLL":"018","ELEVATION":null,"ELEV_METHD":null,"WITHIN_CO":null,"WITHIN_SEC":"Y","LOC_MATCH":"Y","SEC_DIST":"Yes","ELEV_DEM":null,"ELEV_DIF":null,"LANDSYS":"Lacustrine coarse","DEPTH_FLAG":null,"ELEV_FLAG":null,"SWL_FLAG":null,"SPC_CPCITY":0.34999999999999998,"AQ_CODE":"D","ROCK_TOP":null,"AQ_THK_1":24,"AQ_THK_2":24,"AQ_THK_D":52,"H_COND_1":50,"H_COND_2":50,"V_COND_1":50,"V_COND_2":50,"TRANSMSV_1":1200,"TRANSMSV_2":1200,"B_AQ_THK":null,"B_H_COND":null,"B_V_COND":null,"B_TRANS":null,"AQ_THICK_D":null,"H_COND_D":50,"V_COND_D":50,"TRANS_D":2600,"AQ_FLAG":null,"SCRN_FLAG":null,"NOTES":null,"WELLCODE":null,"TOPAQ":28,"BOTAQ":54,"WWAT_ID":null}},{"type":"Feature","id":1173220,"geometry":{"type":"Point","coordinates":[-85.390162839200002,44.267929648000063]},"properties":{"OBJECTID":1173220,"WELLID":"83000009937","COUNTY":"Wexford","PERMIT_NUM":null,"TOWNSHIP":"Haring","TOWN":"22N","RANGE":"09W","SECTION":27,"OWNER_NAME":"KOUNTRY KITCHEN","WELL_ADDR":"951 Casa RD","WELL_CITY":"CADILLAC","WELL_ZIP":"49601","WELL_DEPTH":54,"WELL_TYPE":"HOSHLD","TYPE_OTHER":null,"WEL_STATUS":"ACT","STATUS_OTH":null,"WSSN":null,"WELL_NUM":null,"DRILLER_ID":"83-1089","DRILL_METH":"CABTOO","METH_OTHER":null,"CONST_DATE":"1979-10-11 00:00:00","CASE_TYPE":"UNK","CASE_OTHER":null,"CASE_DIA":2,"CASE_DEPTH":54,"SCREEN_FRM":50,"SCREEN_TO":54,"SWL":30,"FLOWING":"N","AQ_TYPE":null,"TEST_DEPTH":40,"TEST_HOURS":0.5,"TEST_RATE":null,"TEST_METHD":"UNK","TEST_OTHER":null,"GROUT":"N","PMP_CPCITY":null,"LATITUDE":44.267929647999999,"LONGITUDE":-85.390162839200002,"METHD_COLL":"018","ELEVATION":null,"ELEV_METHD":null,"WITHIN_CO":null,"WITHIN_SEC":"Y","LOC_MATCH":"Y","SEC_DIST":"Yes","ELEV_DEM":null,"ELEV_DIF":null,"LANDSYS":"Proglacial outwash","DEPTH_FLAG":null,"ELEV_FLAG":null,"SWL_FLAG":null,"SPC_CPCITY":null,"AQ_CODE":"D","ROCK_TOP":null,"AQ_THK_1":24,"AQ_THK_2":24,"AQ_THK_D":54,"H_COND_1":200,"H_COND_2":200,"V_COND_1":200,"V_COND_2":200,"TRANSMSV_1":4800,"TRANSMSV_2":4800,"B_AQ_THK":null,"B_H_COND":null,"B_V_COND":null,"B_TRANS":null,"AQ_THICK_D":null,"H_COND_D":200,"V_COND_D":200,"TRANS_D":10800,"AQ_FLAG":null,"SCRN_FLAG":null,"NOTES":null,"WELLCODE":null,"TOPAQ":30,"BOTAQ":54,"WWAT_ID":null}},{"type":"Feature","id":1167389,"geometry":{"type":"Point","coordinates":[-85.391815000000008,44.266413]},"properties":{"OBJECTID":1167389,"WELLID":"83000003692","COUNTY":"Wexford","PERMIT_NUM":"27816","TOWNSHIP":"Haring","TOWN":"22N","RANGE":"09W","SECTION":34,"OWNER_NAME":"JOHN PUTVIN","WELL_ADDR":"9408 EAST 13TH STREET","WELL_CITY":"CADILLAC","WELL_ZIP":"49601","WELL_DEPTH":141,"WELL_TYPE":"HOSHLD","TYPE_OTHER":null,"WEL_STATUS":"ACT","STATUS_OTH":null,"WSSN":null,"WELL_NUM":null,"DRILLER_ID":"83-2057","DRILL_METH":"ROTARY","METH_OTHER":null,"CONST_DATE":"1998-06-01 00:00:00","CASE_TYPE":"PVCPLA","CASE_OTHER":null,"CASE_DIA":5,"CASE_DEPTH":137,"SCREEN_FRM":null,"SCREEN_TO":null,"SWL":70,"FLOWING":"N","AQ_TYPE":"DRIFT","TEST_DEPTH":75,"TEST_HOURS":2,"TEST_RATE":15,"TEST_METHD":"TSTPUM","TEST_OTHER":null,"GROUT":"Y","PMP_CPCITY":10,"LATITUDE":44.266413,"LONGITUDE":-85.391814999999994,"METHD_COLL":"018","ELEVATION":null,"ELEV_METHD":null,"WITHIN_CO":null,"WITHIN_SEC":"Y","LOC_MATCH":"Y","SEC_DIST":"Yes","ELEV_DEM":1329,"ELEV_DIF":null,"LANDSYS":"LACUSTRINE COARSE","DEPTH_FLAG":null,"ELEV_FLAG":null,"SWL_FLAG":null,"SPC_CPCITY":0.20000000000000001,"AQ_CODE":"D","ROCK_TOP":null,"AQ_THK_1":71,"AQ_THK_2":71,"AQ_THK_D":132,"H_COND_1":100,"H_COND_2":100,"V_COND_1":100,"V_COND_2":100,"TRANSMSV_1":7100,"TRANSMSV_2":7100,"B_AQ_THK":null,"B_H_COND":null,"B_V_COND":null,"B_TRANS":null,"AQ_THICK_D":null,"H_COND_D":100,"V_COND_D":100,"TRANS_D":13200,"AQ_FLAG":null,"SCRN_FLAG":null,"NOTES":null,"WELLCODE":null,"TOPAQ":70,"BOTAQ":141,"WWAT_ID":null}},{"type":"Feature","id":1172350,"geometry":{"type":"Point","coordinates":[-85.399107000000015,44.26580100000001]},"properties":{"OBJECTID":1172350,"WELLID":"83000009019","COUNTY":"Wexford","PERMIT_NUM":null,"TOWNSHIP":"Haring","TOWN":"22N","RANGE":"09W","SECTION":33,"OWNER_NAME":"DORENE BIGGER","WELL_ADDR":"1208 RIVERSIDE ST","WELL_CITY":"CADILLAC","WELL_ZIP":"49601","WELL_DEPTH":53,"WELL_TYPE":"HOSHLD","TYPE_OTHER":null,"WEL_STATUS":"ACT","STATUS_OTH":null,"WSSN":null,"WELL_NUM":null,"DRILLER_ID":"84-1089","DRILL_METH":"HOLROD","METH_OTHER":null,"CONST_DATE":"1974-06-27 00:00:00","CASE_TYPE":"UNK","CASE_OTHER":null,"CASE_DIA":2,"CASE_DEPTH":53,"SCREEN_FRM":49,"SCREEN_TO":53,"SWL":25,"FLOWING":"U","AQ_TYPE":null,"TEST_DEPTH":30,"TEST_HOURS":0.5,"TEST_RATE":null,"TEST_METHD":"UNK","TEST_OTHER":null,"GROUT":"U","PMP_CPCITY":null,"LATITUDE":44.265801000000003,"LONGITUDE":-85.399107000000001,"METHD_COLL":"018","ELEVATION":null,"ELEV_METHD":null,"WITHIN_CO":null,"WITHIN_SEC":"Y","LOC_MATCH":"Y","SEC_DIST":"Yes","ELEV_DEM":null,"ELEV_DIF":null,"LANDSYS":"Lacustrine coarse","DEPTH_FLAG":null,"ELEV_FLAG":null,"SWL_FLAG":null,"SPC_CPCITY":null,"AQ_CODE":"D","ROCK_TOP":null,"AQ_THK_1":10,"AQ_THK_2":20,"AQ_THK_D":45,"H_COND_1":100,"H_COND_2":75,"V_COND_1":100,"V_COND_2":66.666666669999998,"TRANSMSV_1":1000,"TRANSMSV_2":1500,"B_AQ_THK":null,"B_H_COND":null,"B_V_COND":null,"B_TRANS":null,"AQ_THICK_D":null,"H_COND_D":61.111111110000003,"V_COND_D":56.25,"TRANS_D":2750,"AQ_FLAG":null,"SCRN_FLAG":null,"NOTES":null,"WELLCODE":null,"TOPAQ":43,"BOTAQ":53,"WWAT_ID":null}},{"type":"Feature","id":1168749,"geometry":{"type":"Point","coordinates":[-85.391219999999976,44.270019999999988]},"properties":{"OBJECTID":1168749,"WELLID":"83000005179","COUNTY":"Wexford","PERMIT_NUM":"W-06-83-004","TOWNSHIP":"Haring","TOWN":"22N","RANGE":"09W","SECTION":27,"OWNER_NAME":"CADILLAC AREA PUBLIC SCHOOLS","WELL_ADDR":"704 CASA RD.","WELL_CITY":"CADILLAC","WELL_ZIP":"49601","WELL_DEPTH":100,"WELL_TYPE":"TY2PU","TYPE_OTHER":null,"WEL_STATUS":"ACT","STATUS_OTH":null,"WSSN":2029383,"WELL_NUM":"001","DRILLER_ID":"70-2055","DRILL_METH":"ROTARY","METH_OTHER":null,"CONST_DATE":"2006-12-13 00:00:00","CASE_TYPE":"PVCPLA","CASE_OTHER":null,"CASE_DIA":5,"CASE_DEPTH":90,"SCREEN_FRM":90,"SCREEN_TO":100,"SWL":34,"FLOWING":"N","AQ_TYPE":"DRIFT","TEST_DEPTH":38,"TEST_HOURS":4,"TEST_RATE":40,"TEST_METHD":"TSTPUM","TEST_OTHER":null,"GROUT":"Y","PMP_CPCITY":20,"LATITUDE":44.270020000000002,"LONGITUDE":-85.391220000000004,"METHD_COLL":"018","ELEVATION":1296,"ELEV_METHD":"005","WITHIN_CO":null,"WITHIN_SEC":"Y","LOC_MATCH":"Y","SEC_DIST":"Yes","ELEV_DEM":1289,"ELEV_DIF":null,"LANDSYS":"LACUSTRINE COARSE","DEPTH_FLAG":null,"ELEV_FLAG":null,"SWL_FLAG":null,"SPC_CPCITY":1.0526315799999999,"AQ_CODE":"D","ROCK_TOP":null,"AQ_THK_1":66,"AQ_THK_2":66,"AQ_THK_D":85,"H_COND_1":50,"H_COND_2":50,"V_COND_1":50,"V_COND_2":50,"TRANSMSV_1":3300,"TRANSMSV_2":3300,"B_AQ_THK":null,"B_H_COND":null,"B_V_COND":null,"B_TRANS":null,"AQ_THICK_D":null,"H_COND_D":50,"V_COND_D":50,"TRANS_D":4250,"AQ_FLAG":null,"SCRN_FLAG":null,"NOTES":null,"WELLCODE":null,"TOPAQ":34,"BOTAQ":100,"WWAT_ID":null}},{"type":"Feature","id":1172885,"geometry":{"type":"Point","coordinates":[-85.392780000000016,44.262192000000141]},"properties":{"OBJECTID":1172885,"WELLID":"83000009558","COUNTY":"Wexford","PERMIT_NUM":"83-00332","TOWNSHIP":"Haring","TOWN":"22N","RANGE":"09W","SECTION":34,"OWNER_NAME":"CADILLAC REVIVAL CTR","WELL_ADDR":"984 PLETT RD","WELL_CITY":"CADILLAC","WELL_ZIP":"49601","WELL_DEPTH":215,"WELL_TYPE":"TY2PU","TYPE_OTHER":null,"WEL_STATUS":"ACT","STATUS_OTH":null,"WSSN":null,"WELL_NUM":null,"DRILLER_ID":"83-2489","DRILL_METH":"ROTARY","METH_OTHER":null,"CONST_DATE":null,"CASE_TYPE":"PVCPLA","CASE_OTHER":null,"CASE_DIA":5,"CASE_DEPTH":205,"SCREEN_FRM":205,"SCREEN_TO":215,"SWL":90,"FLOWING":"N","AQ_TYPE":null,"TEST_DEPTH":110,"TEST_HOURS":2,"TEST_RATE":50,"TEST_METHD":"TSTPUM","TEST_OTHER":null,"GROUT":"Y","PMP_CPCITY":35,"LATITUDE":44.262191999999999,"LONGITUDE":-85.392780000000002,"METHD_COLL":"018","ELEVATION":null,"ELEV_METHD":null,"WITHIN_CO":null,"WITHIN_SEC":"Y","LOC_MATCH":"Y","SEC_DIST":"Yes","ELEV_DEM":null,"ELEV_DIF":null,"LANDSYS":"Lacustrine coarse","DEPTH_FLAG":null,"ELEV_FLAG":null,"SWL_FLAG":null,"SPC_CPCITY":0.45454545000000002,"AQ_CODE":"D","ROCK_TOP":null,"AQ_THK_1":108,"AQ_THK_2":108,"AQ_THK_D":170,"H_COND_1":50,"H_COND_2":50,"V_COND_1":50,"V_COND_2":50,"TRANSMSV_1":5400,"TRANSMSV_2":5400,"B_AQ_THK":null,"B_H_COND":null,"B_V_COND":null,"B_TRANS":null,"AQ_THICK_D":null,"H_COND_D":63.823529409999999,"V_COND_D":58.020477820000004,"TRANS_D":10850,"AQ_FLAG":null,"SCRN_FLAG":null,"NOTES":null,"WELLCODE":null,"TOPAQ":107,"BOTAQ":215,"WWAT_ID":null}},{"type":"Feature","id":1173214,"geometry":{"type":"Point","coordinates":[-85.399129999999957,44.267670000000066]},"properties":{"OBJECTID":1173214,"WELLID":"83000009931","COUNTY":"Wexford","PERMIT_NUM":null,"TOWNSHIP":"Haring","TOWN":"22N","RANGE":"09W","SECTION":28,"OWNER_NAME":"CLAYTON HUGGINS","WELL_ADDR":"603 E 13th ST","WELL_CITY":"cadillac","WELL_ZIP":"49601","WELL_DEPTH":39,"WELL_TYPE":"HOSHLD","TYPE_OTHER":null,"WEL_STATUS":"ACT","STATUS_OTH":null,"WSSN":null,"WELL_NUM":null,"DRILLER_ID":"83-1089","DRILL_METH":"DRIVEN","METH_OTHER":null,"CONST_DATE":"1986-11-16 00:00:00","CASE_TYPE":"UNK","CASE_OTHER":null,"CASE_DIA":2,"CASE_DEPTH":39,"SCREEN_FRM":35,"SCREEN_TO":39,"SWL":20,"FLOWING":"N","AQ_TYPE":null,"TEST_DEPTH":25,"TEST_HOURS":0.5,"TEST_RATE":null,"TEST_METHD":"UNK","TEST_OTHER":null,"GROUT":"N","PMP_CPCITY":null,"LATITUDE":44.267670000000003,"LONGITUDE":-85.39913,"METHD_COLL":"018","ELEVATION":null,"ELEV_METHD":null,"WITHIN_CO":null,"WITHIN_SEC":"Y","LOC_MATCH":"Y","SEC_DIST":"Yes","ELEV_DEM":null,"ELEV_DIF":null,"LANDSYS":"Lacustrine coarse","DEPTH_FLAG":null,"ELEV_FLAG":null,"SWL_FLAG":null,"SPC_CPCITY":null,"AQ_CODE":"D","ROCK_TOP":null,"AQ_THK_1":19,"AQ_THK_2":19,"AQ_THK_D":39,"H_COND_1":100,"H_COND_2":100,"V_COND_1":100,"V_COND_2":100,"TRANSMSV_1":1900,"TRANSMSV_2":1900,"B_AQ_THK":null,"B_H_COND":null,"B_V_COND":null,"B_TRANS":null,"AQ_THICK_D":null,"H_COND_D":100,"V_COND_D":100,"TRANS_D":3900,"AQ_FLAG":null,"SCRN_FLAG":null,"NOTES":null,"WELLCODE":null,"TOPAQ":20,"BOTAQ":39,"WWAT_ID":null}},{"type":"Feature","id":1167501,"geometry":{"type":"Point","coordinates":[-85.400568000000021,44.267051000000038]},"properties":{"OBJECTID":1167501,"WELLID":"83000003805","COUNTY":"Wexford","PERMIT_NUM":"83-01444","TOWNSHIP":"Haring","TOWN":"22N","RANGE":"09W","SECTION":28,"OWNER_NAME":"RICKY & ANNA CLARK","WELL_ADDR":"509 EAST 13TH STREET","WELL_CITY":"CADILLAC","WELL_ZIP":"49601","WELL_DEPTH":65,"WELL_TYPE":"HOSHLD","TYPE_OTHER":null,"WEL_STATUS":"ACT","STATUS_OTH":null,"WSSN":null,"WELL_NUM":null,"DRILLER_ID":"83-1567","DRILL_METH":"ROTARY","METH_OTHER":null,"CONST_DATE":"2004-03-16 00:00:00","CASE_TYPE":"PVCPLA","CASE_OTHER":null,"CASE_DIA":5,"CASE_DEPTH":60,"SCREEN_FRM":60,"SCREEN_TO":65,"SWL":29,"FLOWING":"N","AQ_TYPE":"DRIFT","TEST_DEPTH":45,"TEST_HOURS":1,"TEST_RATE":12,"TEST_METHD":"TSTPUM","TEST_OTHER":null,"GROUT":"Y","PMP_CPCITY":12,"LATITUDE":44.267051000000002,"LONGITUDE":-85.400568000000007,"METHD_COLL":"001","ELEVATION":1302,"ELEV_METHD":"014","WITHIN_CO":null,"WITHIN_SEC":"Y","LOC_MATCH":"Y","SEC_DIST":"Yes","ELEV_DEM":1289,"ELEV_DIF":null,"LANDSYS":"LACUSTRINE COARSE","DEPTH_FLAG":null,"ELEV_FLAG":null,"SWL_FLAG":null,"SPC_CPCITY":0.26666666999999999,"AQ_CODE":"D","ROCK_TOP":null,"AQ_THK_1":15,"AQ_THK_2":28,"AQ_THK_D":57,"H_COND_1":50,"H_COND_2":50,"V_COND_1":50,"V_COND_2":50,"TRANSMSV_1":750,"TRANSMSV_2":1400,"B_AQ_THK":null,"B_H_COND":null,"B_V_COND":null,"B_TRANS":null,"AQ_THICK_D":null,"H_COND_D":50,"V_COND_D":50,"TRANS_D":2850,"AQ_FLAG":null,"SCRN_FLAG":null,"NOTES":null,"WELLCODE":null,"TOPAQ":50,"BOTAQ":65,"WWAT_ID":null}},{"type":"Feature","id":1165829,"geometry":{"type":"Point","coordinates":[-85.385179999999991,44.267146000000082]},"properties":{"OBJECTID":1165829,"WELLID":"83000002024","COUNTY":"Wexford","PERMIT_NUM":"27439","TOWNSHIP":"Haring","TOWN":"22N","RANGE":"09W","SECTION":27,"OWNER_NAME":"BRYCE L. VANDERVLUGT","WELL_ADDR":"9521 EAST 13TH STREET","WELL_CITY":"CADILLAC","WELL_ZIP":"49601","WELL_DEPTH":120,"WELL_TYPE":"HOSHLD","TYPE_OTHER":null,"WEL_STATUS":null,"STATUS_OTH":null,"WSSN":null,"WELL_NUM":null,"DRILLER_ID":"50-0475","DRILL_METH":"ROTARY","METH_OTHER":null,"CONST_DATE":"1998-04-09 16:52:02","CASE_TYPE":"PVCPLA","CASE_OTHER":null,"CASE_DIA":5,"CASE_DEPTH":115,"SCREEN_FRM":115,"SCREEN_TO":120,"SWL":68,"FLOWING":"N","AQ_TYPE":"DRIFT","TEST_DEPTH":73,"TEST_HOURS":1,"TEST_RATE":34,"TEST_METHD":"AIR","TEST_OTHER":null,"GROUT":"Y","PMP_CPCITY":15,"LATITUDE":44.267145999999997,"LONGITUDE":-85.385180000000005,"METHD_COLL":"001","ELEVATION":null,"ELEV_METHD":null,"WITHIN_CO":null,"WITHIN_SEC":"Y","LOC_MATCH":"Y","SEC_DIST":"Yes","ELEV_DEM":1312,"ELEV_DIF":null,"LANDSYS":"PROGLACIAL OUTWASH","DEPTH_FLAG":null,"ELEV_FLAG":null,"SWL_FLAG":null,"SPC_CPCITY":null,"AQ_CODE":"D","ROCK_TOP":null,"AQ_THK_1":52,"AQ_THK_2":52,"AQ_THK_D":120,"H_COND_1":100,"H_COND_2":100,"V_COND_1":100,"V_COND_2":100,"TRANSMSV_1":5200,"TRANSMSV_2":5200,"B_AQ_THK":null,"B_H_COND":null,"B_V_COND":null,"B_TRANS":null,"AQ_THICK_D":null,"H_COND_D":100,"V_COND_D":100,"TRANS_D":12000,"AQ_FLAG":null,"SCRN_FLAG":null,"NOTES":null,"WELLCODE":null,"TOPAQ":68,"BOTAQ":120,"WWAT_ID":null}},{"type":"Feature","id":1164916,"geometry":{"type":"Point","coordinates":[-85.391822999999931,44.266431000000068]},"properties":{"OBJECTID":1164916,"WELLID":"83000000983","COUNTY":"Wexford","PERMIT_NUM":null,"TOWNSHIP":"Haring","TOWN":"22N","RANGE":"09W","SECTION":34,"OWNER_NAME":"PUTVIN, JOHN","WELL_ADDR":"9208 E 13TH ST","WELL_CITY":"CADILLAC","WELL_ZIP":"49601","WELL_DEPTH":141,"WELL_TYPE":"HOSHLD","TYPE_OTHER":null,"WEL_STATUS":"ACT","STATUS_OTH":null,"WSSN":null,"WELL_NUM":null,"DRILLER_ID":"83-2057","DRILL_METH":"ROTARY","METH_OTHER":null,"CONST_DATE":null,"CASE_TYPE":"PVCPLA","CASE_OTHER":null,"CASE_DIA":5,"CASE_DEPTH":137,"SCREEN_FRM":137,"SCREEN_TO":141,"SWL":70,"FLOWING":"N","AQ_TYPE":"DRIFT","TEST_DEPTH":75,"TEST_HOURS":2,"TEST_RATE":15,"TEST_METHD":"UNK","TEST_OTHER":null,"GROUT":"Y","PMP_CPCITY":0,"LATITUDE":44.266430999999997,"LONGITUDE":-85.391823000000002,"METHD_COLL":"018","ELEVATION":null,"ELEV_METHD":null,"WITHIN_CO":null,"WITHIN_SEC":"Y","LOC_MATCH":"Y","SEC_DIST":"Yes","ELEV_DEM":1329,"ELEV_DIF":null,"LANDSYS":"LACUSTRINE COARSE","DEPTH_FLAG":null,"ELEV_FLAG":null,"SWL_FLAG":null,"SPC_CPCITY":null,"AQ_CODE":"D","ROCK_TOP":null,"AQ_THK_1":71,"AQ_THK_2":71,"AQ_THK_D":132,"H_COND_1":100,"H_COND_2":100,"V_COND_1":100,"V_COND_2":100,"TRANSMSV_1":7100,"TRANSMSV_2":7100,"B_AQ_THK":null,"B_H_COND":null,"B_V_COND":null,"B_TRANS":null,"AQ_THICK_D":null,"H_COND_D":100,"V_COND_D":100,"TRANS_D":13200,"AQ_FLAG":null,"SCRN_FLAG":null,"NOTES":null,"WELLCODE":null,"TOPAQ":70,"BOTAQ":141,"WWAT_ID":null}},{"type":"Feature","id":1166445,"geometry":{"type":"Point","coordinates":[-85.398144000000002,44.267424000000005]},"properties":{"OBJECTID":1166445,"WELLID":"83000002665","COUNTY":"Wexford","PERMIT_NUM":"83-00413","TOWNSHIP":"Haring","TOWN":"22N","RANGE":"09W","SECTION":28,"OWNER_NAME":"NELLIE J. RUHL","WELL_ADDR":"613 E. 13 ST.","WELL_CITY":null,"WELL_ZIP":"","WELL_DEPTH":48,"WELL_TYPE":"HOSHLD","TYPE_OTHER":null,"WEL_STATUS":"ACT","STATUS_OTH":null,"WSSN":null,"WELL_NUM":null,"DRILLER_ID":"83-2057","DRILL_METH":"CABTOO","METH_OTHER":null,"CONST_DATE":null,"CASE_TYPE":"STEBLA","CASE_OTHER":null,"CASE_DIA":4,"CASE_DEPTH":54,"SCREEN_FRM":54,"SCREEN_TO":58,"SWL":30,"FLOWING":"N","AQ_TYPE":"DRIFT","TEST_DEPTH":35,"TEST_HOURS":2,"TEST_RATE":15,"TEST_METHD":"TSTPUM","TEST_OTHER":null,"GROUT":"Y","PMP_CPCITY":10,"LATITUDE":44.267423999999998,"LONGITUDE":-85.398144000000002,"METHD_COLL":"018","ELEVATION":null,"ELEV_METHD":null,"WITHIN_CO":null,"WITHIN_SEC":"Y","LOC_MATCH":"Y","SEC_DIST":"Yes","ELEV_DEM":1286,"ELEV_DIF":null,"LANDSYS":"LACUSTRINE COARSE","DEPTH_FLAG":null,"ELEV_FLAG":null,"SWL_FLAG":null,"SPC_CPCITY":0.42857142999999998,"AQ_CODE":"D","ROCK_TOP":null,"AQ_THK_1":28,"AQ_THK_2":28,"AQ_THK_D":45,"H_COND_1":100,"H_COND_2":100,"V_COND_1":100,"V_COND_2":100,"TRANSMSV_1":2800,"TRANSMSV_2":2800,"B_AQ_THK":null,"B_H_COND":null,"B_V_COND":null,"B_TRANS":null,"AQ_THICK_D":null,"H_COND_D":86.666666669999998,"V_COND_D":78.947368420000004,"TRANS_D":3900,"AQ_FLAG":null,"SCRN_FLAG":null,"NOTES":null,"WELLCODE":null,"TOPAQ":30,"BOTAQ":58,"WWAT_ID":null}},{"type":"Feature","id":1168560,"geometry":{"type":"Point","coordinates":[-85.396889999999985,44.270570000000021]},"properties":{"OBJECTID":1168560,"WELLID":"83000004978","COUNTY":"Wexford","PERMIT_NUM":"83-2362","TOWNSHIP":"Haring","TOWN":"22N","RANGE":"09W","SECTION":28,"OWNER_NAME":"Don Jones","WELL_ADDR":"1523 Plett Road","WELL_CITY":"Cadillac ","WELL_ZIP":"49601","WELL_DEPTH":56,"WELL_TYPE":"HOSHLD","TYPE_OTHER":null,"WEL_STATUS":"ACT","STATUS_OTH":null,"WSSN":null,"WELL_NUM":null,"DRILLER_ID":"57-1943","DRILL_METH":"CABTOO","METH_OTHER":null,"CONST_DATE":"2006-03-06 00:00:00","CASE_TYPE":"STEGAL","CASE_OTHER":null,"CASE_DIA":4,"CASE_DEPTH":52,"SCREEN_FRM":52,"SCREEN_TO":56,"SWL":32,"FLOWING":"N","AQ_TYPE":"DRIFT","TEST_DEPTH":null,"TEST_HOURS":2,"TEST_RATE":20,"TEST_METHD":"PLUGR","TEST_OTHER":null,"GROUT":"Y","PMP_CPCITY":10,"LATITUDE":44.270569999999999,"LONGITUDE":-85.396889999999999,"METHD_COLL":"016","ELEVATION":null,"ELEV_METHD":null,"WITHIN_CO":null,"WITHIN_SEC":"Y","LOC_MATCH":"Y","SEC_DIST":"Yes","ELEV_DEM":1289,"ELEV_DIF":null,"LANDSYS":"LACUSTRINE COARSE","DEPTH_FLAG":null,"ELEV_FLAG":null,"SWL_FLAG":null,"SPC_CPCITY":null,"AQ_CODE":"D","ROCK_TOP":null,"AQ_THK_1":24,"AQ_THK_2":24,"AQ_THK_D":56,"H_COND_1":50,"H_COND_2":50,"V_COND_1":50,"V_COND_2":50,"TRANSMSV_1":1200,"TRANSMSV_2":1200,"B_AQ_THK":null,"B_H_COND":null,"B_V_COND":null,"B_TRANS":null,"AQ_THICK_D":null,"H_COND_D":49.125,"V_COND_D":26.666666670000001,"TRANS_D":2751,"AQ_FLAG":null,"SCRN_FLAG":null,"NOTES":null,"WELLCODE":null,"TOPAQ":32,"BOTAQ":56,"WWAT_ID":null}},{"type":"Feature","id":1167870,"geometry":{"type":"Point","coordinates":[-85.396142999999995,44.270684000000074]},"properties":{"OBJECTID":1167870,"WELLID":"83000004214","COUNTY":"Wexford","PERMIT_NUM":"83-01775","TOWNSHIP":"Haring","TOWN":"22N","RANGE":"09W","SECTION":27,"OWNER_NAME":"Dorothy Kedrowski","WELL_ADDR":"1524 Plett Rd.","WELL_CITY":"Cadillac","WELL_ZIP":"49601","WELL_DEPTH":58,"WELL_TYPE":"HOSHLD","TYPE_OTHER":null,"WEL_STATUS":"ACT","STATUS_OTH":null,"WSSN":null,"WELL_NUM":null,"DRILLER_ID":"83-2057","DRILL_METH":"CABTOO","METH_OTHER":null,"CONST_DATE":"2004-10-04 00:00:00","CASE_TYPE":"STEGAL","CASE_OTHER":null,"CASE_DIA":4,"CASE_DEPTH":54,"SCREEN_FRM":54,"SCREEN_TO":58,"SWL":30,"FLOWING":"N","AQ_TYPE":"DRIFT","TEST_DEPTH":35,"TEST_HOURS":1,"TEST_RATE":10,"TEST_METHD":"TSTPUM","TEST_OTHER":null,"GROUT":"Y","PMP_CPCITY":10,"LATITUDE":44.270684000000003,"LONGITUDE":-85.396142999999995,"METHD_COLL":"001","ELEVATION":null,"ELEV_METHD":null,"WITHIN_CO":null,"WITHIN_SEC":"Y","LOC_MATCH":"Y","SEC_DIST":"Yes","ELEV_DEM":1289,"ELEV_DIF":null,"LANDSYS":"LACUSTRINE COARSE","DEPTH_FLAG":null,"ELEV_FLAG":null,"SWL_FLAG":null,"SPC_CPCITY":0.28571428999999998,"AQ_CODE":"D","ROCK_TOP":null,"AQ_THK_1":28,"AQ_THK_2":28,"AQ_THK_D":58,"H_COND_1":100,"H_COND_2":100,"V_COND_1":100,"V_COND_2":100,"TRANSMSV_1":2800,"TRANSMSV_2":2800,"B_AQ_THK":null,"B_H_COND":null,"B_V_COND":null,"B_TRANS":null,"AQ_THICK_D":null,"H_COND_D":100,"V_COND_D":100,"TRANS_D":5800,"AQ_FLAG":null,"SCRN_FLAG":null,"NOTES":null,"WELLCODE":null,"TOPAQ":30,"BOTAQ":58,"WWAT_ID":null}},{"type":"Feature","id":1172147,"geometry":{"type":"Point","coordinates":[-85.397177999999997,44.267930000000092]},"properties":{"OBJECTID":1172147,"WELLID":"83000008815","COUNTY":"Wexford","PERMIT_NUM":null,"TOWNSHIP":"Haring","TOWN":"22N","RANGE":"09W","SECTION":28,"OWNER_NAME":"ARCHIE JAY NELSON","WELL_ADDR":"1351 PLETT RD","WELL_CITY":"CADILLAC","WELL_ZIP":"49601    ","WELL_DEPTH":30,"WELL_TYPE":"HOSHLD","TYPE_OTHER":null,"WEL_STATUS":"ACT","STATUS_OTH":null,"WSSN":null,"WELL_NUM":null,"DRILLER_ID":"84-1567","DRILL_METH":"OTH","METH_OTHER":"CABLE TOOL + DRIVEN","CONST_DATE":"1994-04-04 00:00:00","CASE_TYPE":"STEUNK","CASE_OTHER":null,"CASE_DIA":2,"CASE_DEPTH":27,"SCREEN_FRM":27,"SCREEN_TO":31,"SWL":22,"FLOWING":"U","AQ_TYPE":null,"TEST_DEPTH":26,"TEST_HOURS":1,"TEST_RATE":10,"TEST_METHD":"UNK","TEST_OTHER":null,"GROUT":"Y","PMP_CPCITY":10,"LATITUDE":44.26793,"LONGITUDE":-85.397177999999997,"METHD_COLL":"018","ELEVATION":null,"ELEV_METHD":null,"WITHIN_CO":null,"WITHIN_SEC":"Y","LOC_MATCH":"Y","SEC_DIST":"Yes","ELEV_DEM":null,"ELEV_DIF":null,"LANDSYS":"Lacustrine coarse","DEPTH_FLAG":null,"ELEV_FLAG":null,"SWL_FLAG":null,"SPC_CPCITY":null,"AQ_CODE":"D","ROCK_TOP":null,"AQ_THK_1":null,"AQ_THK_2":null,"AQ_THK_D":null,"H_COND_1":null,"H_COND_2":null,"V_COND_1":null,"V_COND_2":null,"TRANSMSV_1":null,"TRANSMSV_2":null,"B_AQ_THK":null,"B_H_COND":null,"B_V_COND":null,"B_TRANS":null,"AQ_THICK_D":null,"H_COND_D":null,"V_COND_D":null,"TRANS_D":null,"AQ_FLAG":null,"SCRN_FLAG":null,"NOTES":null,"WELLCODE":"WBL","TOPAQ":null,"BOTAQ":31,"WWAT_ID":null}},{"type":"Feature","id":1166168,"geometry":{"type":"Point","coordinates":[-85.396885999999995,44.269541000000004]},"properties":{"OBJECTID":1166168,"WELLID":"83000002381","COUNTY":"Wexford","PERMIT_NUM":"32622","TOWNSHIP":"Haring","TOWN":"22N","RANGE":"09W","SECTION":28,"OWNER_NAME":"Edith Denman","WELL_ADDR":"1471 Plett rd","WELL_CITY":"Cadillac","WELL_ZIP":"49601","WELL_DEPTH":65,"WELL_TYPE":"HOSHLD","TYPE_OTHER":null,"WEL_STATUS":"ACT","STATUS_OTH":null,"WSSN":null,"WELL_NUM":null,"DRILLER_ID":"57-1943","DRILL_METH":"ROTARY","METH_OTHER":null,"CONST_DATE":"2000-11-20 00:00:00","CASE_TYPE":"PVCPLA","CASE_OTHER":null,"CASE_DIA":5,"CASE_DEPTH":60,"SCREEN_FRM":61,"SCREEN_TO":65,"SWL":30,"FLOWING":"N","AQ_TYPE":"DRIFT","TEST_DEPTH":null,"TEST_HOURS":null,"TEST_RATE":null,"TEST_METHD":"AIR","TEST_OTHER":null,"GROUT":"Y","PMP_CPCITY":10,"LATITUDE":44.269540999999997,"LONGITUDE":-85.396885999999995,"METHD_COLL":"001","ELEVATION":null,"ELEV_METHD":null,"WITHIN_CO":null,"WITHIN_SEC":"Y","LOC_MATCH":"Y","SEC_DIST":"Yes","ELEV_DEM":1286,"ELEV_DIF":null,"LANDSYS":"LACUSTRINE COARSE","DEPTH_FLAG":null,"ELEV_FLAG":null,"SWL_FLAG":null,"SPC_CPCITY":null,"AQ_CODE":"D","ROCK_TOP":null,"AQ_THK_1":35,"AQ_THK_2":35,"AQ_THK_D":51,"H_COND_1":50,"H_COND_2":50,"V_COND_1":50,"V_COND_2":50,"TRANSMSV_1":1750,"TRANSMSV_2":1750,"B_AQ_THK":null,"B_H_COND":null,"B_V_COND":null,"B_TRANS":null,"AQ_THICK_D":null,"H_COND_D":50,"V_COND_D":50,"TRANS_D":2550,"AQ_FLAG":null,"SCRN_FLAG":null,"NOTES":null,"WELLCODE":null,"TOPAQ":30,"BOTAQ":65,"WWAT_ID":null}},{"type":"Feature","id":1164911,"geometry":{"type":"Point","coordinates":[-85.395642000000009,44.26633500000014]},"properties":{"OBJECTID":1164911,"WELLID":"83000000978","COUNTY":"Wexford","PERMIT_NUM":null,"TOWNSHIP":"Haring","TOWN":"22N","RANGE":"09W","SECTION":34,"OWNER_NAME":"WILTZER, CHARLES H.","WELL_ADDR":"9052 E 13TH ST","WELL_CITY":"CADILLAC","WELL_ZIP":"49601","WELL_DEPTH":110,"WELL_TYPE":"UNK","TYPE_OTHER":null,"WEL_STATUS":"ACT","STATUS_OTH":null,"WSSN":null,"WELL_NUM":null,"DRILLER_ID":"83-2057","DRILL_METH":"ROTARY","METH_OTHER":null,"CONST_DATE":null,"CASE_TYPE":"PVCPLA","CASE_OTHER":null,"CASE_DIA":5,"CASE_DEPTH":106,"SCREEN_FRM":106,"SCREEN_TO":110,"SWL":40,"FLOWING":"N","AQ_TYPE":"DRIFT","TEST_DEPTH":45,"TEST_HOURS":2,"TEST_RATE":15,"TEST_METHD":"UNK","TEST_OTHER":null,"GROUT":"Y","PMP_CPCITY":0,"LATITUDE":44.266334999999998,"LONGITUDE":-85.395641999999995,"METHD_COLL":"018","ELEVATION":null,"ELEV_METHD":null,"WITHIN_CO":null,"WITHIN_SEC":"Y","LOC_MATCH":"Y","SEC_DIST":"Yes","ELEV_DEM":1342,"ELEV_DIF":null,"LANDSYS":"ICE-CONTACT OUTWASH","DEPTH_FLAG":null,"ELEV_FLAG":null,"SWL_FLAG":null,"SPC_CPCITY":null,"AQ_CODE":"D","ROCK_TOP":null,"AQ_THK_1":66,"AQ_THK_2":66,"AQ_THK_D":106,"H_COND_1":100,"H_COND_2":100,"V_COND_1":100,"V_COND_2":100,"TRANSMSV_1":6600,"TRANSMSV_2":6600,"B_AQ_THK":null,"B_H_COND":null,"B_V_COND":null,"B_TRANS":null,"AQ_THICK_D":null,"H_COND_D":100,"V_COND_D":100,"TRANS_D":10600,"AQ_FLAG":null,"SCRN_FLAG":null,"NOTES":null,"WELLCODE":null,"TOPAQ":40,"BOTAQ":110,"WWAT_ID":null}},{"type":"Feature","id":1168578,"geometry":{"type":"Point","coordinates":[-85.395902999999919,44.265825000000007]},"properties":{"OBJECTID":1168578,"WELLID":"83000004997","COUNTY":"Wexford","PERMIT_NUM":"83-2274","TOWNSHIP":"Haring","TOWN":"22N","RANGE":"09W","SECTION":34,"OWNER_NAME":"ARNIE WORKMAN","WELL_ADDR":"1156 PLETT ROAD","WELL_CITY":"CADILLAC","WELL_ZIP":"49601","WELL_DEPTH":100,"WELL_TYPE":"TY3PU","TYPE_OTHER":null,"WEL_STATUS":"ACT","STATUS_OTH":null,"WSSN":null,"WELL_NUM":null,"DRILLER_ID":"50-0475","DRILL_METH":"ROTARY","METH_OTHER":null,"CONST_DATE":"2005-12-20 00:00:00","CASE_TYPE":"PVCPLA","CASE_OTHER":null,"CASE_DIA":5,"CASE_DEPTH":95,"SCREEN_FRM":95,"SCREEN_TO":100,"SWL":40,"FLOWING":"N","AQ_TYPE":"DRIFT","TEST_DEPTH":45,"TEST_HOURS":1,"TEST_RATE":45,"TEST_METHD":"AIR","TEST_OTHER":null,"GROUT":"Y","PMP_CPCITY":20,"LATITUDE":44.265825,"LONGITUDE":-85.395903000000004,"METHD_COLL":"018","ELEVATION":null,"ELEV_METHD":null,"WITHIN_CO":null,"WITHIN_SEC":"Y","LOC_MATCH":"Y","SEC_DIST":"Yes","ELEV_DEM":1342,"ELEV_DIF":null,"LANDSYS":"LACUSTRINE COARSE","DEPTH_FLAG":null,"ELEV_FLAG":null,"SWL_FLAG":null,"SPC_CPCITY":null,"AQ_CODE":"D","ROCK_TOP":null,"AQ_THK_1":41,"AQ_THK_2":54,"AQ_THK_D":94,"H_COND_1":50,"H_COND_2":50,"V_COND_1":50,"V_COND_2":50,"TRANSMSV_1":2050,"TRANSMSV_2":2700,"B_AQ_THK":null,"B_H_COND":null,"B_V_COND":null,"B_TRANS":null,"AQ_THICK_D":null,"H_COND_D":50,"V_COND_D":50,"TRANS_D":4700,"AQ_FLAG":null,"SCRN_FLAG":null,"NOTES":null,"WELLCODE":null,"TOPAQ":59,"BOTAQ":100,"WWAT_ID":null}},{"type":"Feature","id":1165976,"geometry":{"type":"Point","coordinates":[-85.395950999999911,44.26580800000005]},"properties":{"OBJECTID":1165976,"WELLID":"83000002184","COUNTY":"Wexford","PERMIT_NUM":"26150","TOWNSHIP":"Haring","TOWN":"22N","RANGE":"09W","SECTION":34,"OWNER_NAME":"Charles H. Wiltzer","WELL_ADDR":"1190 PLETT RD","WELL_CITY":"Cadillac","WELL_ZIP":"","WELL_DEPTH":110,"WELL_TYPE":"TY2PU","TYPE_OTHER":null,"WEL_STATUS":"ACT","STATUS_OTH":null,"WSSN":2025883,"WELL_NUM":"001","DRILLER_ID":"83-2057","DRILL_METH":"ROTARY","METH_OTHER":null,"CONST_DATE":"1997-09-01 00:00:00","CASE_TYPE":"PVCPLA","CASE_OTHER":null,"CASE_DIA":5,"CASE_DEPTH":106,"SCREEN_FRM":106,"SCREEN_TO":110,"SWL":40,"FLOWING":null,"AQ_TYPE":null,"TEST_DEPTH":45,"TEST_HOURS":2,"TEST_RATE":15,"TEST_METHD":"TSTPUM","TEST_OTHER":null,"GROUT":"Y","PMP_CPCITY":null,"LATITUDE":44.265808,"LONGITUDE":-85.395950999999997,"METHD_COLL":"018","ELEVATION":null,"ELEV_METHD":null,"WITHIN_CO":null,"WITHIN_SEC":"Y","LOC_MATCH":"Y","SEC_DIST":"Yes","ELEV_DEM":1329,"ELEV_DIF":null,"LANDSYS":"LACUSTRINE COARSE","DEPTH_FLAG":null,"ELEV_FLAG":null,"SWL_FLAG":null,"SPC_CPCITY":0.33333332999999998,"AQ_CODE":"D","ROCK_TOP":null,"AQ_THK_1":66,"AQ_THK_2":66,"AQ_THK_D":106,"H_COND_1":50,"H_COND_2":50,"V_COND_1":50,"V_COND_2":50,"TRANSMSV_1":3300,"TRANSMSV_2":3300,"B_AQ_THK":null,"B_H_COND":null,"B_V_COND":null,"B_TRANS":null,"AQ_THICK_D":null,"H_COND_D":50,"V_COND_D":50,"TRANS_D":5300,"AQ_FLAG":null,"SCRN_FLAG":null,"NOTES":null,"WELLCODE":null,"TOPAQ":40,"BOTAQ":110,"WWAT_ID":null}},{"type":"Feature","id":1169239,"geometry":{"type":"Point","coordinates":[-85.396799999999985,44.268810000000087]},"properties":{"OBJECTID":1169239,"WELLID":"83000005803","COUNTY":"Wexford","PERMIT_NUM":"83-3281","TOWNSHIP":"Haring","TOWN":"22N","RANGE":"09W","SECTION":28,"OWNER_NAME":"Grace Godell","WELL_ADDR":"1385 Plett Rd","WELL_CITY":"Cadillac","WELL_ZIP":"49601","WELL_DEPTH":58,"WELL_TYPE":"HOSHLD","TYPE_OTHER":null,"WEL_STATUS":"ACT","STATUS_OTH":null,"WSSN":null,"WELL_NUM":null,"DRILLER_ID":"83-2489","DRILL_METH":"ROTARY","METH_OTHER":null,"CONST_DATE":"2010-08-26 00:00:00","CASE_TYPE":"PVCPLA","CASE_OTHER":null,"CASE_DIA":5,"CASE_DEPTH":54,"SCREEN_FRM":54,"SCREEN_TO":58,"SWL":26,"FLOWING":"N","AQ_TYPE":null,"TEST_DEPTH":null,"TEST_HOURS":0.5,"TEST_RATE":15,"TEST_METHD":"AIR","TEST_OTHER":null,"GROUT":"Y","PMP_CPCITY":10,"LATITUDE":44.268810000000002,"LONGITUDE":-85.396799999999999,"METHD_COLL":"016","ELEVATION":null,"ELEV_METHD":null,"WITHIN_CO":null,"WITHIN_SEC":"Y","LOC_MATCH":"Y","SEC_DIST":"Yes","ELEV_DEM":1289,"ELEV_DIF":null,"LANDSYS":"LACUSTRINE COARSE","DEPTH_FLAG":null,"ELEV_FLAG":null,"SWL_FLAG":null,"SPC_CPCITY":null,"AQ_CODE":"D","ROCK_TOP":null,"AQ_THK_1":32,"AQ_THK_2":32,"AQ_THK_D":58,"H_COND_1":50,"H_COND_2":50,"V_COND_1":50,"V_COND_2":50,"TRANSMSV_1":1600,"TRANSMSV_2":1600,"B_AQ_THK":null,"B_H_COND":null,"B_V_COND":null,"B_TRANS":null,"AQ_THICK_D":null,"H_COND_D":50,"V_COND_D":50,"TRANS_D":2900,"AQ_FLAG":null,"SCRN_FLAG":null,"NOTES":null,"WELLCODE":null,"TOPAQ":26,"BOTAQ":58,"WWAT_ID":null}},{"type":"Feature","id":1165919,"geometry":{"type":"Point","coordinates":[-85.396866999999929,44.269941000000074]},"properties":{"OBJECTID":1165919,"WELLID":"83000002117","COUNTY":"Wexford","PERMIT_NUM":"31365","TOWNSHIP":"Haring","TOWN":"22N","RANGE":"09W","SECTION":28,"OWNER_NAME":"JAMES D. EASH JR.","WELL_ADDR":"1491 PLETT ROAD","WELL_CITY":"CADILLAC","WELL_ZIP":"49601","WELL_DEPTH":37,"WELL_TYPE":"HOSHLD","TYPE_OTHER":null,"WEL_STATUS":"ACT","STATUS_OTH":null,"WSSN":null,"WELL_NUM":null,"DRILLER_ID":"67-0549","DRILL_METH":"HOLROD","METH_OTHER":null,"CONST_DATE":"1999-05-09 00:00:00","CASE_TYPE":"STEGAL","CASE_OTHER":null,"CASE_DIA":2,"CASE_DEPTH":33,"SCREEN_FRM":33,"SCREEN_TO":37,"SWL":30,"FLOWING":"N","AQ_TYPE":"DRIFT","TEST_DEPTH":30,"TEST_HOURS":null,"TEST_RATE":null,"TEST_METHD":"UNK","TEST_OTHER":null,"GROUT":"Y","PMP_CPCITY":null,"LATITUDE":44.269941000000003,"LONGITUDE":-85.396867,"METHD_COLL":"018","ELEVATION":1292.3199999999999,"ELEV_METHD":"014","WITHIN_CO":null,"WITHIN_SEC":"Y","LOC_MATCH":"Y","SEC_DIST":"Yes","ELEV_DEM":1286,"ELEV_DIF":null,"LANDSYS":"LACUSTRINE COARSE","DEPTH_FLAG":null,"ELEV_FLAG":null,"SWL_FLAG":null,"SPC_CPCITY":null,"AQ_CODE":"D","ROCK_TOP":null,"AQ_THK_1":7,"AQ_THK_2":7,"AQ_THK_D":29,"H_COND_1":50,"H_COND_2":50,"V_COND_1":50,"V_COND_2":50,"TRANSMSV_1":350,"TRANSMSV_2":350,"B_AQ_THK":null,"B_H_COND":null,"B_V_COND":null,"B_TRANS":null,"AQ_THICK_D":null,"H_COND_D":50,"V_COND_D":50,"TRANS_D":1450,"AQ_FLAG":null,"SCRN_FLAG":null,"NOTES":null,"WELLCODE":null,"TOPAQ":30,"BOTAQ":37,"WWAT_ID":null}},{"type":"Feature","id":1166185,"geometry":{"type":"Point","coordinates":[-85.396722000000011,44.272225000000049]},"properties":{"OBJECTID":1166185,"WELLID":"83000002398","COUNTY":"Wexford","PERMIT_NUM":"31633","TOWNSHIP":"Haring","TOWN":"22N","RANGE":"09W","SECTION":28,"OWNER_NAME":"John Long","WELL_ADDR":"1535 Plett Rd","WELL_CITY":"Cadillac","WELL_ZIP":"49601","WELL_DEPTH":54,"WELL_TYPE":"HOSHLD","TYPE_OTHER":null,"WEL_STATUS":"ACT","STATUS_OTH":null,"WSSN":null,"WELL_NUM":null,"DRILLER_ID":"83-1567","DRILL_METH":"ROTARY","METH_OTHER":null,"CONST_DATE":"2000-06-30 00:00:00","CASE_TYPE":"PVCPLA","CASE_OTHER":null,"CASE_DIA":5,"CASE_DEPTH":50,"SCREEN_FRM":50,"SCREEN_TO":54,"SWL":24,"FLOWING":"N","AQ_TYPE":"DRIFT","TEST_DEPTH":42,"TEST_HOURS":1,"TEST_RATE":12,"TEST_METHD":"TSTPUM","TEST_OTHER":null,"GROUT":"Y","PMP_CPCITY":null,"LATITUDE":44.272224999999999,"LONGITUDE":-85.396721999999997,"METHD_COLL":"018","ELEVATION":null,"ELEV_METHD":null,"WITHIN_CO":null,"WITHIN_SEC":"Y","LOC_MATCH":"Y","SEC_DIST":"Yes","ELEV_DEM":1289,"ELEV_DIF":null,"LANDSYS":"LACUSTRINE COARSE","DEPTH_FLAG":null,"ELEV_FLAG":null,"SWL_FLAG":null,"SPC_CPCITY":0.28571428999999998,"AQ_CODE":"D","ROCK_TOP":null,"AQ_THK_1":14,"AQ_THK_2":17,"AQ_THK_D":41,"H_COND_1":50,"H_COND_2":50,"V_COND_1":50,"V_COND_2":50,"TRANSMSV_1":700,"TRANSMSV_2":850,"B_AQ_THK":null,"B_H_COND":null,"B_V_COND":null,"B_TRANS":null,"AQ_THICK_D":null,"H_COND_D":50,"V_COND_D":50,"TRANS_D":2050,"AQ_FLAG":null,"SCRN_FLAG":null,"NOTES":null,"WELLCODE":null,"TOPAQ":40,"BOTAQ":54,"WWAT_ID":null}},{"type":"Feature","id":1172348,"geometry":{"type":"Point","coordinates":[-85.397487000000012,44.262388000000044]},"properties":{"OBJECTID":1172348,"WELLID":"83000009017","COUNTY":"Wexford","PERMIT_NUM":null,"TOWNSHIP":"Haring","TOWN":"22N","RANGE":"09W","SECTION":33,"OWNER_NAME":"SOPHIA FLEUCHAUS","WELL_ADDR":"1024 SUNDBERG ST","WELL_CITY":"CADILLAC","WELL_ZIP":"49601","WELL_DEPTH":63,"WELL_TYPE":"HOSHLD","TYPE_OTHER":null,"WEL_STATUS":"ACT","STATUS_OTH":null,"WSSN":null,"WELL_NUM":null,"DRILLER_ID":"84-1089","DRILL_METH":"CABTOO","METH_OTHER":null,"CONST_DATE":"1968-05-18 00:00:00","CASE_TYPE":"UNK","CASE_OTHER":null,"CASE_DIA":2,"CASE_DEPTH":63,"SCREEN_FRM":59,"SCREEN_TO":63,"SWL":45,"FLOWING":"U","AQ_TYPE":null,"TEST_DEPTH":45,"TEST_HOURS":0.5,"TEST_RATE":null,"TEST_METHD":"UNK","TEST_OTHER":null,"GROUT":"N","PMP_CPCITY":null,"LATITUDE":44.262388000000001,"LONGITUDE":-85.397486999999998,"METHD_COLL":"018","ELEVATION":null,"ELEV_METHD":null,"WITHIN_CO":null,"WITHIN_SEC":"Y","LOC_MATCH":"Y","SEC_DIST":"Yes","ELEV_DEM":null,"ELEV_DIF":null,"LANDSYS":"Lacustrine coarse","DEPTH_FLAG":null,"ELEV_FLAG":null,"SWL_FLAG":null,"SPC_CPCITY":null,"AQ_CODE":"D","ROCK_TOP":null,"AQ_THK_1":null,"AQ_THK_2":null,"AQ_THK_D":null,"H_COND_1":null,"H_COND_2":null,"V_COND_1":null,"V_COND_2":null,"TRANSMSV_1":null,"TRANSMSV_2":null,"B_AQ_THK":null,"B_H_COND":null,"B_V_COND":null,"B_TRANS":null,"AQ_THICK_D":null,"H_COND_D":null,"V_COND_D":null,"TRANS_D":null,"AQ_FLAG":null,"SCRN_FLAG":null,"NOTES":null,"WELLCODE":"WBL","TOPAQ":null,"BOTAQ":63,"WWAT_ID":null}},{"type":"Feature","id":1172883,"geometry":{"type":"Point","coordinates":[-85.397064,44.271811000000071]},"properties":{"OBJECTID":1172883,"WELLID":"83000009556","COUNTY":"Wexford","PERMIT_NUM":"83-00288","TOWNSHIP":"Haring","TOWN":"22N","RANGE":"09W","SECTION":28,"OWNER_NAME":"HAROLD GARROW","WELL_ADDR":"1533 PLETT RD","WELL_CITY":"CADILLAC","WELL_ZIP":"49601","WELL_DEPTH":58,"WELL_TYPE":"HOSHLD","TYPE_OTHER":null,"WEL_STATUS":"ACT","STATUS_OTH":null,"WSSN":null,"WELL_NUM":null,"DRILLER_ID":"83-2489","DRILL_METH":"CABTOO","METH_OTHER":null,"CONST_DATE":null,"CASE_TYPE":"STEUNK","CASE_OTHER":null,"CASE_DIA":5,"CASE_DEPTH":54,"SCREEN_FRM":54,"SCREEN_TO":58,"SWL":40,"FLOWING":"N","AQ_TYPE":null,"TEST_DEPTH":45,"TEST_HOURS":2,"TEST_RATE":15,"TEST_METHD":"TSTPUM","TEST_OTHER":null,"GROUT":"Y","PMP_CPCITY":10,"LATITUDE":44.271811,"LONGITUDE":-85.397064,"METHD_COLL":"018","ELEVATION":null,"ELEV_METHD":null,"WITHIN_CO":null,"WITHIN_SEC":"Y","LOC_MATCH":"Y","SEC_DIST":"Yes","ELEV_DEM":null,"ELEV_DIF":null,"LANDSYS":"Lacustrine coarse","DEPTH_FLAG":null,"ELEV_FLAG":null,"SWL_FLAG":null,"SPC_CPCITY":0.33333332999999998,"AQ_CODE":"D","ROCK_TOP":null,"AQ_THK_1":18,"AQ_THK_2":18,"AQ_THK_D":50,"H_COND_1":50,"H_COND_2":50,"V_COND_1":50,"V_COND_2":50,"TRANSMSV_1":900,"TRANSMSV_2":900,"B_AQ_THK":null,"B_H_COND":null,"B_V_COND":null,"B_TRANS":null,"AQ_THICK_D":null,"H_COND_D":50,"V_COND_D":50,"TRANS_D":2500,"AQ_FLAG":null,"SCRN_FLAG":null,"NOTES":null,"WELLCODE":null,"TOPAQ":40,"BOTAQ":58,"WWAT_ID":null}},{"type":"Feature","id":1170579,"geometry":{"type":"Point","coordinates":[-85.396723000000009,44.26869899999997]},"properties":{"OBJECTID":1170579,"WELLID":"83000007218","COUNTY":"Wexford","PERMIT_NUM":"83-6097","TOWNSHIP":"Haring","TOWN":"22N","RANGE":"09W","SECTION":28,"OWNER_NAME":"GREGORY GRAHEK","WELL_ADDR":"1383 PLETT RD.","WELL_CITY":"CADILLAC ","WELL_ZIP":"49601","WELL_DEPTH":50,"WELL_TYPE":"HOSHLD","TYPE_OTHER":null,"WEL_STATUS":"ACT","STATUS_OTH":null,"WSSN":null,"WELL_NUM":null,"DRILLER_ID":"83-0475","DRILL_METH":"CABTOO","METH_OTHER":null,"CONST_DATE":"2021-11-02 00:00:00","CASE_TYPE":"STEGAL","CASE_OTHER":null,"CASE_DIA":4,"CASE_DEPTH":46,"SCREEN_FRM":46,"SCREEN_TO":50,"SWL":26,"FLOWING":"N","AQ_TYPE":null,"TEST_DEPTH":27,"TEST_HOURS":1,"TEST_RATE":25,"TEST_METHD":"TSTPUM","TEST_OTHER":null,"GROUT":"Y","PMP_CPCITY":10,"LATITUDE":44.268698999999998,"LONGITUDE":-85.396722999999994,"METHD_COLL":"018","ELEVATION":null,"ELEV_METHD":null,"WITHIN_CO":null,"WITHIN_SEC":"Y","LOC_MATCH":"Y","SEC_DIST":"Yes","ELEV_DEM":1293,"ELEV_DIF":null,"LANDSYS":"Lacustrine coarse","DEPTH_FLAG":null,"ELEV_FLAG":null,"SWL_FLAG":null,"SPC_CPCITY":0.92592593000000001,"AQ_CODE":"D","ROCK_TOP":null,"AQ_THK_1":24,"AQ_THK_2":24,"AQ_THK_D":50,"H_COND_1":100,"H_COND_2":100,"V_COND_1":100,"V_COND_2":100,"TRANSMSV_1":2400,"TRANSMSV_2":2400,"B_AQ_THK":null,"B_H_COND":null,"B_V_COND":null,"B_TRANS":null,"AQ_THICK_D":null,"H_COND_D":100,"V_COND_D":100,"TRANS_D":5000,"AQ_FLAG":null,"SCRN_FLAG":null,"NOTES":null,"WELLCODE":null,"TOPAQ":26,"BOTAQ":50,"WWAT_ID":null}},{"type":"Feature","id":1167562,"geometry":{"type":"Point","coordinates":[-85.400846000000001,44.261038000000042]},"properties":{"OBJECTID":1167562,"WELLID":"83000003869","COUNTY":"Wexford","PERMIT_NUM":"83-01502","TOWNSHIP":"Haring","TOWN":"22N","RANGE":"09W","SECTION":33,"OWNER_NAME":"ROBERT THOMAS","WELL_ADDR":"937 COTEY ST.","WELL_CITY":"CADILLAC","WELL_ZIP":"49601","WELL_DEPTH":105,"WELL_TYPE":"HOSHLD","TYPE_OTHER":null,"WEL_STATUS":"ACT","STATUS_OTH":null,"WSSN":null,"WELL_NUM":null,"DRILLER_ID":"83-1567","DRILL_METH":"ROTARY","METH_OTHER":null,"CONST_DATE":"2004-05-11 00:00:00","CASE_TYPE":"PVCPLA","CASE_OTHER":null,"CASE_DIA":5,"CASE_DEPTH":100,"SCREEN_FRM":100,"SCREEN_TO":105,"SWL":60,"FLOWING":"N","AQ_TYPE":"DRIFT","TEST_DEPTH":90,"TEST_HOURS":1,"TEST_RATE":14,"TEST_METHD":"TSTPUM","TEST_OTHER":null,"GROUT":"Y","PMP_CPCITY":12,"LATITUDE":44.261037999999999,"LONGITUDE":-85.400846000000001,"METHD_COLL":"001","ELEVATION":null,"ELEV_METHD":null,"WITHIN_CO":null,"WITHIN_SEC":"Y","LOC_MATCH":"Y","SEC_DIST":"Yes","ELEV_DEM":1299,"ELEV_DIF":null,"LANDSYS":"LACUSTRINE COARSE","DEPTH_FLAG":null,"ELEV_FLAG":null,"SWL_FLAG":null,"SPC_CPCITY":0.15555556000000001,"AQ_CODE":"D","ROCK_TOP":null,"AQ_THK_1":33,"AQ_THK_2":33,"AQ_THK_D":93,"H_COND_1":50,"H_COND_2":50,"V_COND_1":50,"V_COND_2":50,"TRANSMSV_1":1650,"TRANSMSV_2":1650,"B_AQ_THK":null,"B_H_COND":null,"B_V_COND":null,"B_TRANS":null,"AQ_THICK_D":null,"H_COND_D":50,"V_COND_D":50,"TRANS_D":4650,"AQ_FLAG":null,"SCRN_FLAG":null,"NOTES":null,"WELLCODE":null,"TOPAQ":72,"BOTAQ":105,"WWAT_ID":null}},{"type":"Feature","id":1172233,"geometry":{"type":"Point","coordinates":[-85.407858000000033,44.267224000000112]},"properties":{"OBJECTID":1172233,"WELLID":"83000008901","COUNTY":"Wexford","PERMIT_NUM":null,"TOWNSHIP":"Haring","TOWN":"22N","RANGE":"09W","SECTION":28,"OWNER_NAME":"NORTHERN PROPANE HAS","WELL_ADDR":"180 W 13TH ST","WELL_CITY":"CADILLAC","WELL_ZIP":"49601","WELL_DEPTH":68,"WELL_TYPE":"HOSHLD","TYPE_OTHER":null,"WEL_STATUS":"ACT","STATUS_OTH":null,"WSSN":null,"WELL_NUM":null,"DRILLER_ID":"84-0519","DRILL_METH":"HOLROD","METH_OTHER":null,"CONST_DATE":"1973-01-01 00:00:00","CASE_TYPE":"UNK","CASE_OTHER":null,"CASE_DIA":2,"CASE_DEPTH":null,"SCREEN_FRM":null,"SCREEN_TO":null,"SWL":35,"FLOWING":"U","AQ_TYPE":null,"TEST_DEPTH":null,"TEST_HOURS":null,"TEST_RATE":null,"TEST_METHD":"UNK","TEST_OTHER":null,"GROUT":"U","PMP_CPCITY":10,"LATITUDE":44.267223999999999,"LONGITUDE":-85.407858000000004,"METHD_COLL":"018","ELEVATION":null,"ELEV_METHD":null,"WITHIN_CO":null,"WITHIN_SEC":"Y","LOC_MATCH":"Y","SEC_DIST":"Yes","ELEV_DEM":null,"ELEV_DIF":null,"LANDSYS":"Lacustrine coarse","DEPTH_FLAG":null,"ELEV_FLAG":null,"SWL_FLAG":null,"SPC_CPCITY":null,"AQ_CODE":"D","ROCK_TOP":null,"AQ_THK_1":33,"AQ_THK_2":33,"AQ_THK_D":68,"H_COND_1":100,"H_COND_2":100,"V_COND_1":100,"V_COND_2":100,"TRANSMSV_1":3300,"TRANSMSV_2":3300,"B_AQ_THK":null,"B_H_COND":null,"B_V_COND":null,"B_TRANS":null,"AQ_THICK_D":null,"H_COND_D":77.941176470000002,"V_COND_D":69.387755100000007,"TRANS_D":5300,"AQ_FLAG":null,"SCRN_FLAG":null,"NOTES":null,"WELLCODE":null,"TOPAQ":35,"BOTAQ":68,"WWAT_ID":null}},{"type":"Feature","id":1166823,"geometry":{"type":"Point","coordinates":[-85.395102000000009,44.269299000000046]},"properties":{"OBJECTID":1166823,"WELLID":"83000003064","COUNTY":"Wexford","PERMIT_NUM":"26838","TOWNSHIP":"Haring","TOWN":"22N","RANGE":"09W","SECTION":27,"OWNER_NAME":"Cadillac Public Schools","WELL_ADDR":"1320 Plett Road","WELL_CITY":"Cadillac","WELL_ZIP":"49601","WELL_DEPTH":100,"WELL_TYPE":"TY2PU","TYPE_OTHER":null,"WEL_STATUS":"ACT","STATUS_OTH":null,"WSSN":2026383,"WELL_NUM":"001","DRILLER_ID":"83-2057","DRILL_METH":"ROTARY","METH_OTHER":null,"CONST_DATE":"1998-04-17 00:00:00","CASE_TYPE":"PVCPLA","CASE_OTHER":null,"CASE_DIA":5,"CASE_DEPTH":95,"SCREEN_FRM":95,"SCREEN_TO":100,"SWL":18,"FLOWING":"N","AQ_TYPE":"DRIFT","TEST_DEPTH":22,"TEST_HOURS":4,"TEST_RATE":33,"TEST_METHD":"TSTPUM","TEST_OTHER":null,"GROUT":"Y","PMP_CPCITY":null,"LATITUDE":44.269298999999997,"LONGITUDE":-85.395101999999994,"METHD_COLL":"018","ELEVATION":null,"ELEV_METHD":null,"WITHIN_CO":null,"WITHIN_SEC":"Y","LOC_MATCH":"Y","SEC_DIST":"Yes","ELEV_DEM":1283,"ELEV_DIF":null,"LANDSYS":"LACUSTRINE COARSE","DEPTH_FLAG":null,"ELEV_FLAG":null,"SWL_FLAG":null,"SPC_CPCITY":1.5,"AQ_CODE":"D","ROCK_TOP":null,"AQ_THK_1":82,"AQ_THK_2":82,"AQ_THK_D":100,"H_COND_1":47.865853659999999,"H_COND_2":47.865853659999999,"V_COND_1":32.411067189999997,"V_COND_2":32.411067189999997,"TRANSMSV_1":3925,"TRANSMSV_2":3925,"B_AQ_THK":null,"B_H_COND":null,"B_V_COND":null,"B_TRANS":null,"AQ_THICK_D":null,"H_COND_D":43.75,"V_COND_D":30.76923077,"TRANS_D":4375,"AQ_FLAG":null,"SCRN_FLAG":null,"NOTES":null,"WELLCODE":null,"TOPAQ":18,"BOTAQ":100,"WWAT_ID":null}},{"type":"Feature","id":1171762,"geometry":{"type":"Point","coordinates":[-85.396100999999987,44.270680000000084]},"properties":{"OBJECTID":1171762,"WELLID":"83000008429","COUNTY":"Wexford","PERMIT_NUM":null,"TOWNSHIP":"Haring","TOWN":"22N","RANGE":"09W","SECTION":27,"OWNER_NAME":"DOROTHY KEDROWSKI","WELL_ADDR":"1524 PLETT RD","WELL_CITY":"CADILLAC","WELL_ZIP":"49601","WELL_DEPTH":40,"WELL_TYPE":"HOSHLD","TYPE_OTHER":null,"WEL_STATUS":"ACT","STATUS_OTH":null,"WSSN":null,"WELL_NUM":null,"DRILLER_ID":"84-1567","DRILL_METH":"CABTOO","METH_OTHER":null,"CONST_DATE":"1990-02-01 00:00:00","CASE_TYPE":"STEUNK","CASE_OTHER":null,"CASE_DIA":2,"CASE_DEPTH":36,"SCREEN_FRM":null,"SCREEN_TO":null,"SWL":18,"FLOWING":"U","AQ_TYPE":null,"TEST_DEPTH":23,"TEST_HOURS":1,"TEST_RATE":10,"TEST_METHD":"UNK","TEST_OTHER":null,"GROUT":"U","PMP_CPCITY":15,"LATITUDE":44.270679999999999,"LONGITUDE":-85.396101000000002,"METHD_COLL":"018","ELEVATION":null,"ELEV_METHD":null,"WITHIN_CO":null,"WITHIN_SEC":"Y","LOC_MATCH":"Y","SEC_DIST":"Yes","ELEV_DEM":null,"ELEV_DIF":null,"LANDSYS":"Lacustrine coarse","DEPTH_FLAG":null,"ELEV_FLAG":null,"SWL_FLAG":null,"SPC_CPCITY":null,"AQ_CODE":"D","ROCK_TOP":null,"AQ_THK_1":22,"AQ_THK_2":22,"AQ_THK_D":40,"H_COND_1":50,"H_COND_2":50,"V_COND_1":50,"V_COND_2":50,"TRANSMSV_1":1100,"TRANSMSV_2":1100,"B_AQ_THK":null,"B_H_COND":null,"B_V_COND":null,"B_TRANS":null,"AQ_THICK_D":null,"H_COND_D":50,"V_COND_D":50,"TRANS_D":2000,"AQ_FLAG":null,"SCRN_FLAG":null,"NOTES":null,"WELLCODE":null,"TOPAQ":18,"BOTAQ":40,"WWAT_ID":null}},{"type":"Feature","id":1170442,"geometry":{"type":"Point","coordinates":[-85.40045299999997,44.27150400000005]},"properties":{"OBJECTID":1170442,"WELLID":"83000007081","COUNTY":"Wexford","PERMIT_NUM":"83-5374","TOWNSHIP":"Haring","TOWN":"22N","RANGE":"09W","SECTION":28,"OWNER_NAME":"Dan Pouba","WELL_ADDR":"1531 Hawthorn","WELL_CITY":"Cadillac","WELL_ZIP":"49601","WELL_DEPTH":58,"WELL_TYPE":"TY3PU","TYPE_OTHER":null,"WEL_STATUS":"ACT","STATUS_OTH":null,"WSSN":null,"WELL_NUM":null,"DRILLER_ID":"83-2489","DRILL_METH":"CABTOO","METH_OTHER":null,"CONST_DATE":"2020-11-25 00:00:00","CASE_TYPE":"STEGAL","CASE_OTHER":null,"CASE_DIA":4,"CASE_DEPTH":54,"SCREEN_FRM":54,"SCREEN_TO":58,"SWL":26,"FLOWING":"N","AQ_TYPE":null,"TEST_DEPTH":null,"TEST_HOURS":0.5,"TEST_RATE":15,"TEST_METHD":"BAIL","TEST_OTHER":null,"GROUT":"Y","PMP_CPCITY":10,"LATITUDE":44.271504,"LONGITUDE":-85.400452999999999,"METHD_COLL":"001","ELEVATION":null,"ELEV_METHD":null,"WITHIN_CO":null,"WITHIN_SEC":"Y","LOC_MATCH":"Y","SEC_DIST":"Yes","ELEV_DEM":1292,"ELEV_DIF":null,"LANDSYS":"Lacustrine coarse","DEPTH_FLAG":null,"ELEV_FLAG":null,"SWL_FLAG":null,"SPC_CPCITY":null,"AQ_CODE":"D","ROCK_TOP":null,"AQ_THK_1":32,"AQ_THK_2":32,"AQ_THK_D":58,"H_COND_1":100,"H_COND_2":100,"V_COND_1":100,"V_COND_2":100,"TRANSMSV_1":3200,"TRANSMSV_2":3200,"B_AQ_THK":null,"B_H_COND":null,"B_V_COND":null,"B_TRANS":null,"AQ_THICK_D":null,"H_COND_D":100,"V_COND_D":100,"TRANS_D":5800,"AQ_FLAG":null,"SCRN_FLAG":null,"NOTES":null,"WELLCODE":null,"TOPAQ":26,"BOTAQ":58,"WWAT_ID":null}},{"type":"Feature","id":1165819,"geometry":{"type":"Point","coordinates":[-85.399874999999952,44.267801000000077]},"properties":{"OBJECTID":1165819,"WELLID":"83000002014","COUNTY":"Wexford","PERMIT_NUM":null,"TOWNSHIP":"Haring","TOWN":"22N","RANGE":"09W","SECTION":28,"OWNER_NAME":"GREGORY A. GRAHEK","WELL_ADDR":"513 E. 13TH STREET","WELL_CITY":"CADILLAC","WELL_ZIP":"49601","WELL_DEPTH":46,"WELL_TYPE":"IRRI","TYPE_OTHER":null,"WEL_STATUS":"ACT","STATUS_OTH":null,"WSSN":null,"WELL_NUM":null,"DRILLER_ID":"50-0475","DRILL_METH":"ROTARY","METH_OTHER":null,"CONST_DATE":"1994-05-09 00:00:00","CASE_TYPE":"PVCPLA","CASE_OTHER":null,"CASE_DIA":5,"CASE_DEPTH":41,"SCREEN_FRM":41,"SCREEN_TO":46,"SWL":23,"FLOWING":"N","AQ_TYPE":"DRIFT","TEST_DEPTH":38,"TEST_HOURS":2,"TEST_RATE":40,"TEST_METHD":"UNK","TEST_OTHER":null,"GROUT":"Y","PMP_CPCITY":30,"LATITUDE":44.267800999999999,"LONGITUDE":-85.399874999999994,"METHD_COLL":"001","ELEVATION":null,"ELEV_METHD":null,"WITHIN_CO":null,"WITHIN_SEC":"Y","LOC_MATCH":"Y","SEC_DIST":"Yes","ELEV_DEM":1289,"ELEV_DIF":null,"LANDSYS":"LACUSTRINE COARSE","DEPTH_FLAG":null,"ELEV_FLAG":null,"SWL_FLAG":null,"SPC_CPCITY":null,"AQ_CODE":"D","ROCK_TOP":null,"AQ_THK_1":23,"AQ_THK_2":23,"AQ_THK_D":46,"H_COND_1":50,"H_COND_2":50,"V_COND_1":50,"V_COND_2":50,"TRANSMSV_1":1150,"TRANSMSV_2":1150,"B_AQ_THK":null,"B_H_COND":null,"B_V_COND":null,"B_TRANS":null,"AQ_THICK_D":null,"H_COND_D":50,"V_COND_D":50,"TRANS_D":2300,"AQ_FLAG":null,"SCRN_FLAG":null,"NOTES":null,"WELLCODE":null,"TOPAQ":23,"BOTAQ":46,"WWAT_ID":null}},{"type":"Feature","id":1170047,"geometry":{"type":"Point","coordinates":[-85.395946999999921,44.259997000000112]},"properties":{"OBJECTID":1170047,"WELLID":"83000006674","COUNTY":"Wexford","PERMIT_NUM":"83-4943","TOWNSHIP":"Haring","TOWN":"22N","RANGE":"09W","SECTION":34,"OWNER_NAME":"William Markham","WELL_ADDR":"906 Plett Rd","WELL_CITY":"Cadillac","WELL_ZIP":"49601","WELL_DEPTH":140,"WELL_TYPE":"HOSHLD","TYPE_OTHER":null,"WEL_STATUS":"ACT","STATUS_OTH":null,"WSSN":null,"WELL_NUM":null,"DRILLER_ID":"83-2489","DRILL_METH":"ROTARY","METH_OTHER":null,"CONST_DATE":"2018-03-22 00:00:00","CASE_TYPE":"PVCPLA","CASE_OTHER":null,"CASE_DIA":5,"CASE_DEPTH":135,"SCREEN_FRM":135,"SCREEN_TO":140,"SWL":93,"FLOWING":"N","AQ_TYPE":null,"TEST_DEPTH":null,"TEST_HOURS":0.5,"TEST_RATE":15,"TEST_METHD":"AIR","TEST_OTHER":null,"GROUT":"Y","PMP_CPCITY":10,"LATITUDE":44.259996999999998,"LONGITUDE":-85.395947000000007,"METHD_COLL":"001","ELEVATION":null,"ELEV_METHD":null,"WITHIN_CO":null,"WITHIN_SEC":"Y","LOC_MATCH":"Y","SEC_DIST":"Yes","ELEV_DEM":1361,"ELEV_DIF":null,"LANDSYS":"Lacustrine coarse","DEPTH_FLAG":null,"ELEV_FLAG":null,"SWL_FLAG":null,"SPC_CPCITY":null,"AQ_CODE":"D","ROCK_TOP":null,"AQ_THK_1":47,"AQ_THK_2":47,"AQ_THK_D":140,"H_COND_1":25,"H_COND_2":25,"V_COND_1":25,"V_COND_2":25,"TRANSMSV_1":1175,"TRANSMSV_2":1175,"B_AQ_THK":null,"B_H_COND":null,"B_V_COND":null,"B_TRANS":null,"AQ_THICK_D":null,"H_COND_D":33.928571429999998,"V_COND_D":30.434782609999999,"TRANS_D":4750,"AQ_FLAG":null,"SCRN_FLAG":null,"NOTES":null,"WELLCODE":null,"TOPAQ":93,"BOTAQ":140,"WWAT_ID":null}}]}